licensee_name,postal_code,latitude,longitude,full_address,coordinates
AP HOUSE PTE. LTD.,18961,1.278363046,103.8509574,12 MARINA VIEW THE WESTIN SINGAPORE SINGAPORE 018961,"(1.278363046, 103.8509574)"
COLD STORAGE SINGAPORE (1983) PTE LTD,18972,1.283854644,103.8586749,2 BAYFRONT AVENUE DBS DBS MARINA BAY SANDS BRANCH SINGAPORE 018972,"(1.283854644, 103.8586749)"
FOUR SEASONS GOURMET MARKET PTE. LTD.,18984,1.279724915,103.8545488,8A MARINA BOULEVARD GROUND PLAZA (MARINA BAY LINK MALL) SINGAPORE 018984,"(1.279724915, 103.8545488)"
AL MARCHE PTE LTD,18987,1.280769435,103.8526586,2 MARINA BOULEVARD THE SAIL @ MARINA BAY SINGAPORE 018987,"(1.280769435, 103.8526586)"
COLD STORAGE SINGAPORE (1983) PTE LTD,38983,1.294324165,103.860372,3 TEMASEK BOULEVARD UOB SUNTEC CITY BRANCH SINGAPORE 038983,"(1.294324165, 103.860372)"
EPICUREAN CONCEPTS MARINA SQUARE PTE. LTD.,39594,1.291455268,103.8570073,6 RAFFLES BOULEVARD MINDCHAMPS PRESCHOOL @ MARINA SQUARE PTE. LTD. SINGAPORE 039594,"(1.291455268, 103.8570073)"
BOZZ INTERNATIONAL PTE. LTD.,39594,1.291455268,103.8570073,6 RAFFLES BOULEVARD MINDCHAMPS PRESCHOOL @ MARINA SQUARE PTE. LTD. SINGAPORE 039594,"(1.291455268, 103.8570073)"
WAN SIEW YOONG,50004,1.281800622,103.8429082,4 SAGO LANE SINGAPORE 050004,"(1.281800622, 103.8429082)"
HONG HENG SENG,50005,1.28119737,103.8434373,5 BANDA STREET SINGAPORE 050005,"(1.28119737, 103.8434373)"
NTUC Fairprice Co-operative Ltd,59413,1.285185161,103.8449429,133 NEW BRIDGE ROAD OCBC CHINATOWN POINT - FAIRPRICE SINGAPORE 059413,"(1.285185161, 103.8449429)"
SONG FISH DEALER PTE LTD,59413,1.285185161,103.8449429,133 NEW BRIDGE ROAD OCBC CHINATOWN POINT - FAIRPRICE SINGAPORE 059413,"(1.285185161, 103.8449429)"
NTUC Fairprice Co-operative Ltd,79027,1.274934748,103.8435524,100 TRAS STREET AMARA SINGAPORE SINGAPORE 079027,"(1.274934748, 103.8435524)"
COLD STORAGE SINGAPORE (1983) PTE LTD,79717,1.274709698,103.84432,16 ENGGOR STREET ICON VILLAGE SINGAPORE 079717,"(1.274709698, 103.84432)"
NTUC Fairprice Co-operative Ltd,81005,1.27624052,103.8430061,5 TANJONG PAGAR PLAZA SINGAPORE 081005,"(1.27624052, 103.8430061)"
LOTTE MART PTE. LTD.,88488,1.278173664,103.8439289,67 TANJONG PAGAR ROAD TANJONG PAGAR CONSERVATION AREA SINGAPORE 088488,"(1.278173664, 103.8439289)"
COLD STORAGE SINGAPORE (1983) PTE LTD,90008,1.277795391,103.8193413,8 TELOK BLANGAH CRESCENT SINGAPORE 090008,"(1.277795391, 103.8193413)"
COLD STORAGE SINGAPORE (1983) PTE LTD,98375,1.247758619,103.8419211,31 OCEAN WAY QUAYSIDE ISLE PREPARATORY SCHOOL SINGAPORE 098375,"(1.247758619, 103.8419211)"
COLD STORAGE SINGAPORE (1983) PTE LTD,98537,1.246940686,103.8399861,1 COVE AVENUE OCBC SENTOSA COVE SINGAPORE 098537,"(1.246940686, 103.8399861)"
COLD STORAGE SINGAPORE (1983) PTE LTD,98585,1.264270543,103.8224761,1 HARBOURFRONT WALK UOB VIVO CITY BRANCH SINGAPORE 098585,"(1.264270543, 103.8224761)"
COLD STORAGE SINGAPORE (1983) PTE LTD,99253,1.264088893,103.8202088,1 MARITIME SQUARE OCBC MARITIME SQUARE HARBOURFRONT BRANCH SINGAPORE 099253,"(1.264088893, 103.8202088)"
NTUC Fairprice Co-operative Ltd,100108,1.280966807,103.8102982,108 DEPOT ROAD OCBC DEPOT HEIGHTS SHOPPING CENTRE SINGAPORE 100108,"(1.280966807, 103.8102982)"
NTUC Fairprice Co-operative Ltd,101078,1.27338252,103.8089348,78A TELOK BLANGAH STREET 32 PCF SPARKLETOTS PRESCHOOL @ TELOK BLANGAH BLK 78A (KN) SINGAPORE 101078,"(1.27338252, 103.8089348)"
NTUC Fairprice Co-operative Ltd,119082,1.293512877,103.7846856,1 LOWER KENT RIDGE ROAD OCBC NUH - FAIRPRICE SINGAPORE 119082,"(1.293512877, 103.7846856)"
NTUC Fairprice Co-operative Ltd,119963,1.273842639,103.801375,460 ALEXANDRA ROAD DBS NTUC ALEXANDRA RETAIL CENTRE SINGAPORE 119963,"(1.273842639, 103.801375)"
THNG SAIK MONG,120108,1.322123929,103.7702659,108 CLEMENTI STREET 11 SUNSET WAY RESIDENCE SINGAPORE 120108,"(1.322123929, 103.7702659)"
U STARS SUPERMARKET PTE. LTD.,120345,1.317702812,103.7690767,345 CLEMENTI AVENUE 5 SINGAPORE 120345,"(1.317702812, 103.7690767)"
SHENG SIONG SUPERMARKET PTE LTD,120352,1.314278602,103.7713506,352 CLEMENTI AVENUE 2 CLEMENTI AVENUE 2 SHOPPING CENTRE SINGAPORE 120352,"(1.314278602, 103.7713506)"
NTUC Fairprice Co-operative Ltd,120352,1.314278602,103.7713506,352 CLEMENTI AVENUE 2 CLEMENTI AVENUE 2 SHOPPING CENTRE SINGAPORE 120352,"(1.314278602, 103.7713506)"
NTUC Fairprice Co-operative Ltd,120451,1.312648085,103.7656803,451 CLEMENTI AVENUE 3 OCBC CLEMENTI AVENUE 3 - FAIRPRICE SINGAPORE 120451,"(1.312648085, 103.7656803)"
NTUC Fairprice Co-operative Ltd,120502,1.311906964,103.759128,502 WEST COAST DRIVE OCBC WEST COAST DRIVE - FAIRPRICE SINGAPORE 120502,"(1.311906964, 103.759128)"
SHENG SIONG SUPERMARKET PTE LTD,120720,1.302464088,103.763751,720 CLEMENTI WEST STREET 2 SINGAPORE 120720,"(1.302464088, 103.763751)"
SHENG SIONG SUPERMARKET PTE LTD,121420,1.309647916,103.7686674,420A CLEMENTI AVENUE 1 PCF SPARKLETOTS PRESCHOOL @ CLEMENTI 420A (CC) SINGAPORE 121420,"(1.309647916, 103.7686674)"
COLD STORAGE SINGAPORE (1983) PTE LTD,127371,1.303624575,103.7658584,154 WEST COAST ROAD MINDCHAMPS PRESCHOOL @ WEST COAST PLAZA PTE. LIMITED SINGAPORE 127371,"(1.303624575, 103.7658584)"
L M MEAT PTE. LTD,127371,1.303624575,103.7658584,154 WEST COAST ROAD MINDCHAMPS PRESCHOOL @ WEST COAST PLAZA PTE. LIMITED SINGAPORE 127371,"(1.303624575, 103.7658584)"
NTUC Fairprice Co-operative Ltd,129588,1.315161908,103.7647118,3155 COMMONWEALTH AVENUE WEST OCBC THE CLEMENTI MALL - FAIRPRICE SINGAPORE 129588,"(1.315161908, 103.7647118)"
COLD STORAGE SINGAPORE (1983) PTE LTD,129787,1.301761305,103.7693694,101 CLEMENTI ROAD DBS NUS KENT VALE SINGAPORE 129787,"(1.301761305, 103.7693694)"
NTUC Fairprice Co-operative Ltd,130028,1.304460927,103.7817797,28 DOVER CRESCENT OCBC DOVER CRESCENT - FAIRPRICE SINGAPORE 130028,"(1.304460927, 103.7817797)"
COLD STORAGE SINGAPORE (1983) PTE LTD,138617,1.30684882,103.7882145,1 VISTA EXCHANGE GREEN THE STAR PERFORMING ART CENTRE SINGAPORE 138617,"(1.30684882, 103.7882145)"
TANESEI TRADING PTE. LTD.,138617,1.30684882,103.7882145,1 VISTA EXCHANGE GREEN THE STAR PERFORMING ART CENTRE SINGAPORE 138617,"(1.30684882, 103.7882145)"
COLD STORAGE SINGAPORE (1983) PTE LTD,138632,1.299598572,103.7876409,"1 FUSIONOPOLIS WAY AGENCY FOR SCIENCE, TECHNOLOGY AND RESEARCH (A*STAR) SINGAPORE 138632","(1.299598572, 103.7876409)"
NTUC Fairprice Co-operative Ltd,140170,1.290911282,103.8031208,170 STIRLING ROAD OCBC STIRLING ROAD - FAIRPRICE SINGAPORE 140170,"(1.290911282, 103.8031208)"
SHENG SIONG SUPERMARKET PTE LTD,141085,1.295319663,103.8097586,85 DAWSON ROAD SKYVILLE @ DAWSON SINGAPORE 141085,"(1.295319663, 103.8097586)"
SHENG SIONG SUPERMARKET PTE LTD,141088,1.301785064,103.7982264,88 TANGLIN HALT ROAD CARE CORNER FAMILY SERVICE CENTRE (QUEENSTOWN) SINGAPORE 141088,"(1.301785064, 103.7982264)"
NTUC Fairprice Co-operative Ltd,142057,1.292703398,103.810959,57 DAWSON ROAD SEEDLINGS MONTESSORI ALEXANDRA PTE LTD SINGAPORE 142057,"(1.292703398, 103.810959)"
NTUC Fairprice Co-operative Ltd,150001,1.286441576,103.808287,1 JALAN BUKIT MERAH OCBC JALAN BUKIT MERAH - FAIRPRICE SINGAPORE 150001,"(1.286441576, 103.808287)"
COLD STORAGE SINGAPORE (1983) PTE LTD,150086,1.286920062,103.8186736,86 REDHILL CLOSE SINGAPORE 150086,"(1.286920062, 103.8186736)"
NTUC Fairprice Co-operative Ltd,150166,1.283150928,103.8176897,166 BUKIT MERAH CENTRAL HDB BUKIT MERAH BRANCH SINGAPORE 150166,"(1.283150928, 103.8176897)"
NTUC Fairprice Co-operative Ltd,159053,1.286420968,103.8138655,20 LENGKOK BAHRU BLK G SINGAPORE 159053,"(1.286420968, 103.8138655)"
COLD STORAGE SINGAPORE (1983) PTE LTD,159953,1.28861469,103.80501,370 ALEXANDRA ROAD ANCHORPOINT SHOPPING CENTRE SINGAPORE 159953,"(1.28861469, 103.80501)"
L M MEAT PTE. LTD,159953,1.28861469,103.80501,370 ALEXANDRA ROAD ANCHORPOINT SHOPPING CENTRE SINGAPORE 159953,"(1.28861469, 103.80501)"
NTUC Fairprice Co-operative Ltd,160050,1.289764755,103.8268029,50 HAVELOCK ROAD OCBC HAVELOCK ROAD - FAIRPRICE SINGAPORE 160050,"(1.289764755, 103.8268029)"
SHENG SIONG SUPERMARKET PTE LTD,160052,1.287082783,103.8415801,52 CHIN SWEE ROAD SINGAPORE 160052,"(1.287082783, 103.8415801)"
FASSLER GOURMET PTE LTD,160055,1.284413965,103.8341355,55 TIONG BAHRU ROAD TIONG BAHRU ESTATE SINGAPORE 160055,"(1.284413965, 103.8341355)"
SECRETS FINE FOOD PTE. LTD.,160055,1.284413965,103.8341355,55 TIONG BAHRU ROAD TIONG BAHRU ESTATE SINGAPORE 160055,"(1.284413965, 103.8341355)"
COLD STORAGE SINGAPORE (1983) PTE LTD,161026,1.282634376,103.8255958,26 JALAN MEMBINA MULTI STOREY CAR PARK SINGAPORE 161026,"(1.282634376, 103.8255958)"
NTUC Fairprice Co-operative Ltd,168732,1.286458894,103.8270153,302 TIONG BAHRU ROAD UOB TIONG BAHRU BRANCH AUTO LOBBY SINGAPORE 168732,"(1.286458894, 103.8270153)"
FOODIE MARKET PLACE PTE LTD,169038,1.283450776,103.8353712,225F OUTRAM ROAD SINGAPORE 169038,"(1.283450776, 103.8353712)"
NTUC Fairprice Co-operative Ltd,169252,1.284807338,103.829298,18 KIM TIAN ROAD OCBC KIM TIAN ROAD - FAIRPRICE SINGAPORE 169252,"(1.284807338, 103.829298)"
MEIDI-YA SINGAPORE CO (PTE) LTD,179030,1.291490199,103.8446689,177 RIVER VALLEY ROAD SINGAPORE 179030,"(1.291490199, 103.8446689)"
COLD STORAGE SINGAPORE (1983) PTE LTD,179097,1.29109531,103.8499248,109 NORTH BRIDGE ROAD DEPARTMENT OF STATISTICS SINGAPORE 179097,"(1.29109531, 103.8499248)"
COLD STORAGE SINGAPORE (1983) PTE LTD,179103,1.293760281,103.8527683,252 NORTH BRIDGE ROAD CITIBANK RAFFLES CITY SHOPPING CENTRE SINGAPORE 179103,"(1.293760281, 103.8527683)"
NTUC Fairprice Co-operative Ltd,180001,1.302813225,103.8548185,1 Rochor Road Singapore 180001,"(1.302813225, 103.8548185)"
"JEWISH WELFARE BOARD, SINGAPORE",187950,1.298273283,103.8505995,24 WATERLOO STREET MAGHAIN ABOTH SYNAGOGUE SINGAPORE 187950,"(1.298273283, 103.8505995)"
COLD STORAGE SINGAPORE (1983) PTE LTD,188024,1.299563771,103.8559926,230 VICTORIA STREET INTERNATIONAL ENTERPRISE SINGAPORE (IE) SINGAPORE 188024,"(1.299563771, 103.8559926)"
LOH NYEN YIU,199588,1.302924747,103.8653732,5001 BEACH ROAD UOB GOLDEN MILE COMPLEX SINGAPORE 199588,"(1.302924747, 103.8653732)"
DEARN KAPAG PTE. LTD.,199588,1.302924747,103.8653732,5001 BEACH ROAD UOB GOLDEN MILE COMPLEX SINGAPORE 199588,"(1.302924747, 103.8653732)"
PRIME SUPERMARKET LIMITED?,200803,1.308365264,103.8609128,803 KING GEORGE'S AVENUE SINGAPORE 200803,"(1.308365264, 103.8609128)"
NTUC Fairprice Co-operative Ltd,200808,1.308806094,103.861312,808 FRENCH ROAD OCBC FRENCH ROAD - FAIRPRICE SINGAPORE 200808,"(1.308806094, 103.861312)"
MAHOTA FOOD PTE. LTD.,200809,1.308393967,103.8620598,809 FRENCH ROAD KITCHENER COMPLEX SINGAPORE 200809,"(1.308393967, 103.8620598)"
MUSTAFA HOLDINGS PTE LTD,207706,1.309752999,103.8557015,147 SYED ALWI ROAD SINGAPORE 207706,"(1.309752999, 103.8557015)"
NTUC Fairprice Co-operative Ltd,208539,1.311393494,103.8564871,180 KITCHENER ROAD LEAP SCHOOLHOUSE @ CITY SQUARE MALL PTE LTD SINGAPORE 208539,"(1.311393494, 103.8564871)"
SONG FISH DEALER PTE LTD,208539,1.311393494,103.8564871,180 KITCHENER ROAD LEAP SCHOOLHOUSE @ CITY SQUARE MALL PTE LTD SINGAPORE 208539,"(1.311393494, 103.8564871)"
SHENG SIONG SUPERMARKET PTE LTD,209037,1.30740645,103.8574784,1 JALAN BERSEH OCBC NEW WORLD CENTRE SINGAPORE 209037,"(1.30740645, 103.8574784)"
SHENG SIONG SUPERMARKET PTE LTD,209037,1.30740645,103.8574784,1 JALAN BERSEH OCBC NEW WORLD CENTRE SINGAPORE 209037,"(1.30740645, 103.8574784)"
PARDESHI PTE. LTD.,209586,1.308878029,103.8551555,60A DESKER ROAD DESKER ROAD CONSERVATION AREA SINGAPORE 209586,"(1.308878029, 103.8551555)"
NTUC Fairprice Co-operative Ltd,210043,1.315315951,103.8494542,43 CAMBRIDGE ROAD OCBC CAMBRIDGE ROAD - FAIRPRICE SINGAPORE 210043,"(1.315315951, 103.8494542)"
AMISTA INTERNATIONAL PTE. LTD.,210684,1.314307076,103.8566595,684 RACE COURSE ROAD SINGAPORE 210684,"(1.314307076, 103.8566595)"
SHENG SIONG SUPERMARKET PTE LTD,218227,1.305104362,103.8514743,2 SERANGOON ROAD CITADINES ROCHOR SINGAPORE SINGAPORE 218227,"(1.305104362, 103.8514743)"
NTUC Fairprice Co-operative Ltd,228209,1.305806097,103.8330596,6 SCOTTS ROAD OCBC SCOTTS SQUARE - FAIRPRICE SINGAPORE 228209,"(1.305806097, 103.8330596)"
COLD STORAGE SINGAPORE (1983) PTE LTD,229594,1.307562369,103.8293522,1 CLAYMORE DRIVE EMBASSY OF ROMANIA SINGAPORE 229594,"(1.307562369, 103.8293522)"
COLD STORAGE SINGAPORE (1983) PTE LTD,237994,1.293410628,103.8318526,1 KIM SENG PROMENADE EMBASSY OF THE REPUBLIC OF KAZAKHSTAN SINGAPORE 237994,"(1.293410628, 103.8318526)"
FOUR SEASONS ORGANIC MARKET PTE. LTD.,237994,1.293410628,103.8318526,1 KIM SENG PROMENADE EMBASSY OF THE REPUBLIC OF KAZAKHSTAN SINGAPORE 237994,"(1.293410628, 103.8318526)"
THE BUTCHER'S DOG PTE. LTD.,237994,1.293410628,103.8318526,1 KIM SENG PROMENADE EMBASSY OF THE REPUBLIC OF KAZAKHSTAN SINGAPORE 237994,"(1.293410628, 103.8318526)"
COLD STORAGE SINGAPORE (1983) PTE LTD,238164,1.300300123,103.8373125,111 SOMERSET ROAD SWEDISH SUPPLEMENTARY EDUCATION SCHOOL SINGAPORE 238164,"(1.300300123, 103.8373125)"
COLD STORAGE SINGAPORE (1983) PTE LTD,238801,1.304035779,103.8313951,2 ORCHARD TURN ORCHARD ROAD POST OFFICE SINGAPORE 238801,"(1.304035779, 103.8313951)"
COLD STORAGE SINGAPORE (1983) PTE LTD,238839,1.30083413,103.8450727,68 ORCHARD ROAD STANDARD CHARTERED BANK PLAZA SINGAPURA SINGAPORE 238839,"(1.30083413, 103.8450727)"
COLD STORAGE SINGAPORE (1983) PTE LTD,238859,1.303723224,103.8352403,290 ORCHARD ROAD MINDCHAMPS PRESCHOOL @ PARAGON PTE. LIMITED SINGAPORE 238859,"(1.303723224, 103.8352403)"
ISETAN (SINGAPORE) LIMITED?,238868,1.305868006,103.8315183,350 ORCHARD ROAD SHAW THEATRES LIDO SINGAPORE 238868,"(1.305868006, 103.8315183)"
COLD STORAGE SINGAPORE (1983) PTE LTD,238873,1.302424172,103.8346761,391A ORCHARD ROAD NGEE ANN CITY SINGAPORE 238873,"(1.302424172, 103.8346761)"
COLD STORAGE SINGAPORE (1983) PTE LTD,238879,1.307622826,103.8285904,442 ORCHARD ROAD ORCHARD HOTEL SINGAPORE SINGAPORE 238879,"(1.307622826, 103.8285904)"
SUPERNATURE PTE LTD,238884,1.306248731,103.8290349,583 ORCHARD ROAD OCBC FORUM THE SHOPPING MALL SINGAPORE 238884,"(1.306248731, 103.8290349)"
THE BUTCHER (SINGAPORE) PTE. LTD.,239010,1.293841011,103.8416149,11 MOHAMED SULTAN ROAD SINGAPORE 239010,"(1.293841011, 103.8416149)"
NTUC Fairprice Co-operative Ltd,239571,1.297275314,103.8385339,131 KILLINEY ROAD OCBC KILLINEY ROAD - FAIRPRICE SINGAPORE 239571,"(1.297275314, 103.8385339)"
COLD STORAGE SINGAPORE (1983) PTE LTD,239917,1.292259585,103.842561,81 CLEMENCEAU AVENUE CITIBANK UE SQUARE SINGAPORE 239917,"(1.292259585, 103.842561)"
CULINA PTE LTD,247696,1.304175116,103.8095261,8 DEMPSEY ROAD DEMPSEY CLUSTER (TANGLIN VILLAGE) SINGAPORE 247696,"(1.304175116, 103.8095261)"
COLD STORAGE SINGAPORE (1983) PTE LTD,247933,1.304853421,103.8238835,163 TANGLIN ROAD UOB TANGLIN MALL SINGAPORE 247933,"(1.304853421, 103.8238835)"
SWISS BUTCHERY PTE LTD,247964,1.305552432,103.8230845,56 TANGLIN ROAD TANGLIN POST OFFICE SINGAPORE 247964,"(1.305552432, 103.8230845)"
NTUC Fairprice Co-operative Ltd,248371,1.293105154,103.8270759,491 RIVER VALLEY ROAD OCBC RIVER VALLEY ROAD - FAIRPRICE SINGAPORE 248371,"(1.293105154, 103.8270759)"
HUBER'S PTE. LTD.,249679,1.306792403,103.8101858,22 DEMPSEY ROAD DEMPSEY CLUSTER (TANGLIN VILLAGE) SINGAPORE 249679,"(1.306792403, 103.8101858)"
COLD STORAGE SINGAPORE (1983) PTE LTD,259727,1.319464412,103.8272976,383 BUKIT TIMAH ROAD ALOCASSIA APARTMENTS SINGAPORE 259727,"(1.319464412, 103.8272976)"
COLD STORAGE SINGAPORE (1983) PTE LTD,259760,1.322573169,103.8142455,501 BUKIT TIMAH ROAD CLUNY COURT SINGAPORE 259760,"(1.322573169, 103.8142455)"
THE FISHWIVES PTE. LTD.,259760,1.322573169,103.8142455,501 BUKIT TIMAH ROAD CLUNY COURT SINGAPORE 259760,"(1.322573169, 103.8142455)"
COLD STORAGE SINGAPORE (1983) PTE LTD,268802,1.330774928,103.7957134,1 FIFTH AVENUE DBS GUTHRIE HOUSE SINGAPORE 268802,"(1.330774928, 103.7957134)"
NTUC Fairprice Co-operative Ltd,269707,1.3238337,103.810002,587 BUKIT TIMAH ROAD OCBC BUKIT TIMAH RD - FAIRPRICE SINGAPORE 269707,"(1.3238337, 103.810002)"
MEAT THE BUTCHER PTE. LTD.,269716,1.324373542,103.8093578,615 BUKIT TIMAH ROAD SINGAPORE 269716,"(1.324373542, 103.8093578)"
COLD STORAGE SINGAPORE (1983) PTE LTD,270021,1.310081182,103.7885329,21 GHIM MOH ROAD GHIM MOH ESTATE POST OFFICE SINGAPORE 270021,"(1.310081182, 103.7885329)"
SHENG SIONG SUPERMARKET PTE LTD,270025,1.308118863,103.7860494,25 GHIM MOH LINK DBS GHIM MOH ROAD SINGAPORE 270025,"(1.308118863, 103.7860494)"
NTUC Fairprice Co-operative Ltd,270036,1.309258719,103.7926194,36 HOLLAND DRIVE BUONA VISTA COMMUNITY CLUB COMPLEX SINGAPORE 270036,"(1.309258719, 103.7926194)"
YEO KENG GUAN,276696,1.31661898,103.7789473,5 RIDGEWOOD CLOSE RIDGEWOOD CONDOMINIUM SINGAPORE 276696,"(1.31661898, 103.7789473)"
THE BUTCHER (SINGAPORE) PTE. LTD.,278116,1.311921954,103.796844,44 JALAN MERAH SAGA SINGAPORE 278116,"(1.311921954, 103.796844)"
COLD STORAGE SINGAPORE (1983) PTE LTD,278628,1.31759343,103.7858406,293 HOLLAND ROAD COLD STORAGE JELITA SHOPPING CENTRE SINGAPORE 278628,"(1.31759343, 103.7858406)"
COLD STORAGE SINGAPORE (1983) PTE LTD,278967,1.310255422,103.7953504,211 HOLLAND AVENUE MINDCHAMPS PRESCHOOL @ HOLLAND V PTE. LTD. SINGAPORE 278967,"(1.310255422, 103.7953504)"
COLD STORAGE SINGAPORE (1983) PTE LTD,287994,1.338796735,103.7932561,200 TURF CLUB ROAD MINDCHAMPS PRESCHOOL @ BUKIT TIMAH PTE. LIMITED SINGAPORE 287994,"(1.338796735, 103.7932561)"
SFERM PTE. LTD.,287994,1.338796735,103.7932561,200 TURF CLUB ROAD MINDCHAMPS PRESCHOOL @ BUKIT TIMAH PTE. LIMITED SINGAPORE 287994,"(1.338796735, 103.7932561)"
COLD STORAGE SINGAPORE (1983) PTE LTD,289215,1.331491293,103.806809,20 GREENWOOD AVENUE HILLCREST PARK SINGAPORE 289215,"(1.331491293, 103.806809)"
SWISS BUTCHERY (2013) PRIVATE LIMITED,289230,1.331760921,103.8065867,30 GREENWOOD AVENUE HILLCREST PARK SINGAPORE 289230,"(1.331760921, 103.8065867)"
ROSWELL ENTERPRISE PTE LTD,289236,1.331832465,103.8064925,34 GREENWOOD AVENUE HILLCREST PARK SINGAPORE 289236,"(1.331832465, 103.8064925)"
NG LIAN TEE,289504,1.331664767,103.8070338,7 GREENDALE AVENUE GREENDALE COURT SINGAPORE 289504,"(1.331664767, 103.8070338)"
NTUC Fairprice Co-operative Ltd,307506,1.320429671,103.8438921,250 SINARAN DRIVE DBS NTUC SQUARE 2 SINGAPORE 307506,"(1.320429671, 103.8438921)"
L M MEAT PTE. LTD,307506,1.320429671,103.8438921,250 SINARAN DRIVE DBS NTUC SQUARE 2 SINGAPORE 307506,"(1.320429671, 103.8438921)"
COLD STORAGE SINGAPORE (1983) PTE LTD,307591,1.317468165,103.8434679,101 THOMSON ROAD EMBASSY OF THE REPUBLIC OF MALDIVES SINGAPORE 307591,"(1.317468165, 103.8434679)"
COLD STORAGE SINGAPORE (1983) PTE LTD,307645,1.321146529,103.8415504,275 THOMSON ROAD NOVENA REGENCY SINGAPORE 307645,"(1.321146529, 103.8415504)"
COLD STORAGE SINGAPORE (1983) PTE LTD,307683,1.319789492,103.8440336,238 THOMSON ROAD VELOCITY @ NOVENA SQUARE SINGAPORE 307683,"(1.319789492, 103.8440336)"
COLD STORAGE SINGAPORE (1983) PTE LTD,309426,1.316177418,103.837815,36A DUNEARN ROAD CHANCERY COURT SINGAPORE 309426,"(1.316177418, 103.837815)"
SHENG SIONG SUPERMARKET PTE LTD,310004,1.339044798,103.8555411,4 LORONG 7 TOA PAYOH SKYLACE LEARNING HUB PTE LTD SINGAPORE 310004,"(1.339044798, 103.8555411)"
COLD STORAGE SINGAPORE (1983) PTE LTD,310181,1.333622327,103.8509779,181 LORONG 4 TOA PAYOH UOB TOA PAYOH LORONG 4 SINGAPORE 310181,"(1.333622327, 103.8509779)"
NTUC Fairprice Co-operative Ltd,310192,1.331690082,103.8506198,192 LORONG 4 TOA PAYOH OCBC TOA PAYOH LORONG 4 - FAIRPRICE SINGAPORE 310192,"(1.331690082, 103.8506198)"
LIN POH LING,310212,1.340652197,103.8543345,212 LORONG 8 TOA PAYOH OCBC TOA PAYOH LORONG 8 SINGAPORE 310212,"(1.340652197, 103.8543345)"
COLD STORAGE SINGAPORE (1983) PTE LTD,310260,1.332112915,103.8574166,260 KIM KEAT AVENUE OCBC KIM KEAT AVENUE SINGAPORE 310260,"(1.332112915, 103.8574166)"
NTUC Fairprice Co-operative Ltd,310500,1.332761179,103.8471182,500 LORONG 6 TOA PAYOH OCBC TOA PAYOH LORONG 6 - FAIRPRICE SINGAPORE 310500,"(1.332761179, 103.8471182)"
HAO MART PTE. LTD.,320074,1.324715797,103.8577529,74 WHAMPOA DRIVE WHAMPOA COURT SINGAPORE 320074,"(1.324715797, 103.8577529)"
NTUC Fairprice Co-operative Ltd,320080,1.323796079,103.8556706,80 LORONG LIMAU SUNFLOWER PRESCHOOL @ BALESTIER PTE. LTD. SINGAPORE 320080,"(1.323796079, 103.8556706)"
SHENG SIONG SUPERMARKET PTE LTD,321108,1.321619038,103.8593827,108 MCNAIR ROAD MCNAIR SPRING SINGAPORE 321108,"(1.321619038, 103.8593827)"
SEMPER FIDELIS FINE FOODS PRIVATE LIMITED,329714,1.322133312,103.8532168,262 BALESTIER ROAD OKIO SINGAPORE 329714,"(1.322133312, 103.8532168)"
NTUC Fairprice Co-operative Ltd,329783,1.325252953,103.8509957,360 BALESTIER ROAD SINGAPORE 329783,"(1.325252953, 103.8509957)"
NTUC Fairprice Co-operative Ltd,329984,1.327084855,103.8464765,20 AH HOOD ROAD RAMADA SINGAPORE AT ZHONGSHAN PARK SINGAPORE 329984,"(1.327084855, 103.8464765)"
NTUC Fairprice Co-operative Ltd,330071,1.320992943,103.87039,71 KALLANG BAHRU OCBC KALLANG BAHRU - FAIRPRICE SINGAPORE 330071,"(1.320992943, 103.87039)"
COLD STORAGE SINGAPORE (1983) PTE LTD,339511,1.309711207,103.8643264,12 KALLANG AVENUE DBS APERIA BRANCH SINGAPORE 339511,"(1.309711207, 103.8643264)"
NTUC Fairprice Co-operative Ltd,358361,1.332633815,103.8671517,6 POTONG PASIR AVENUE 2 DBS NTUC POTONG PASIR CC SINGAPORE 358361,"(1.332633815, 103.8671517)"
PRIME SUPERMARKET LIMITED?,360001,1.334292423,103.8787911,1 UPPER ALJUNIED LANE DBS UPPER ALJUNIED ROAD SINGAPORE 360001,"(1.334292423, 103.8787911)"
TAN PAK NANG,367872,1.333123242,103.8788419,387 UPPER ALJUNIED ROAD SINGAPORE 367872,"(1.333123242, 103.8788419)"
NTUC Fairprice Co-operative Ltd,368125,1.331723558,103.879538,401 MACPHERSON ROAD IBIS STYLES SINGAPORE ON MACPHERSON SINGAPORE 368125,"(1.331723558, 103.879538)"
NTUC Fairprice Co-operative Ltd,370077,1.328556562,103.8853499,77 CIRCUIT ROAD OCBC CIRCUIT ROAD - FAIRPRICE SINGAPORE 370077,"(1.328556562, 103.8853499)"
SHENG SIONG SUPERMARKET PTE LTD,372018,1.329181051,103.8882484,18B CIRCUIT ROAD MACPHERSON RESIDENCY SINGAPORE 372018,"(1.329181051, 103.8882484)"
NTUC Fairprice Co-operative Ltd,380005,1.312654496,103.8725418,5 UPPER BOON KENG ROAD OCBC UPPER BOON KENG ROAD - FAIRPRICE SINGAPORE 380005,"(1.312654496, 103.8725418)"
SHENG SIONG SUPERMARKET PTE LTD,380011,1.31423937,103.870914,11 UPPER BOON KENG ROAD BOON KENG VILLE SINGAPORE 380011,"(1.31423937, 103.870914)"
NTUC Fairprice Co-operative Ltd,380114,1.321724552,103.8868071,114 ALJUNIED AVENUE 2 OCBC ALJUNIED AVE 2 - FAIRPRICE SINGAPORE 380114,"(1.321724552, 103.8868071)"
COLD STORAGE SINGAPORE (1983) PTE LTD,380118,1.320048977,103.8874066,118 ALJUNIED AVENUE 2 HDB GEYLANG BRANCH SINGAPORE 380118,"(1.320048977, 103.8874066)"
MONAKO ASIA PTE. LTD.,388595,1.312829381,103.8781479,1 LORONG 15 GEYLANG SINGAPORE 388595,"(1.312829381, 103.8781479)"
PRB TRADING PTE. LTD.,389290,1.312088177,103.8773887,230 GEYLANG ROAD SINGAPORE 389290,"(1.312088177, 103.8773887)"
SHENG SIONG SUPERMARKET PTE LTD,389344,1.312724011,103.8787054,301 GEYLANG ROAD BCH@301 SINGAPORE 389344,"(1.312724011, 103.8787054)"
B & S MINI MART PTE. LTD.,389349,1.312451315,103.8796221,310B GEYLANG ROAD SINGAPORE 389349,"(1.312451315, 103.8796221)"
I-TEC SUPERMART PTE LTD,389456,1.313289737,103.8851538,498B GEYLANG ROAD GREEN COURT SINGAPORE 389456,"(1.313289737, 103.8851538)"
ABEDIN TRADING PTE. LTD.,389538,1.314206082,103.8866995,599A GEYLANG ROAD GEYLANG CONSERVATION AREA SINGAPORE 389538,"(1.314206082, 103.8866995)"
NTUC Fairprice Co-operative Ltd,389551,1.314150013,103.8885449,612C GEYLANG ROAD SINGAPORE 389551,"(1.314150013, 103.8885449)"
YEO HOCK HENG,389797,1.31357605,103.8818778,5 ALJUNIED ROAD SINGAPORE 389797,"(1.31357605, 103.8818778)"
NTUC Fairprice Co-operative Ltd,390041,1.307807962,103.8847676,41 JALAN TIGA OCBC JALAN TIGA - FAIRPRICE SINGAPORE 390041,"(1.307807962, 103.8847676)"
NTUC Fairprice Co-operative Ltd,397628,1.303075152,103.8731497,1 STADIUM PLACE OCBC KALLANG WAVE BRANCH SINGAPORE 397628,"(1.303075152, 103.8731497)"
COLD STORAGE SINGAPORE (1983) PTE LTD,397693,1.302404625,103.8766381,5 STADIUM WALK FILMGARDE AT LEISURE PARK KALLANG SINGAPORE 397693,"(1.302404625, 103.8766381)"
NTUC Fairprice Co-operative Ltd,400005,1.321189791,103.9032663,5 EUNOS CRESCENT OCBC EUNOS CRESCENT - FAIRPRICE SINGAPORE 400005,"(1.321189791, 103.9032663)"
COLD STORAGE SINGAPORE (1983) PTE LTD,400306,1.329872197,103.9019297,306 UBI AVENUE 1 SPRING BRAINY KIDZ GROUP PTE. LTD. SINGAPORE 400306,"(1.329872197, 103.9019297)"
COLD STORAGE SINGAPORE (1983) PTE LTD,400845,1.31630706,103.8943935,845 GEYLANG ROAD DBS TANJONG KATONG COMPLEX SINGAPORE 400845,"(1.31630706, 103.8943935)"
EN FROZEN PTE LTD,402001,1.316678856,103.8981027,1 GEYLANG SERAI DBS GEYLANG SERAI MARKET AND FOOD CENTRE SINGAPORE 402001,"(1.316678856, 103.8981027)"
NTUC Fairprice Co-operative Ltd,408600,1.318838262,103.8945823,10 EUNOS ROAD 8 OCBC SINGAPORE POST CENTRE - FAIRPRICE SINGAPORE 408600,"(1.318838262, 103.8945823)"
COLD STORAGE SINGAPORE (1983) PTE LTD,409051,1.31881487,103.8925808,60 PAYA LEBAR ROAD UOB PAYA LEBAR SQUARE SINGAPORE 409051,"(1.31881487, 103.8925808)"
NTUC Fairprice Co-operative Ltd,410110,1.323976876,103.9106896,110 LENGKONG TIGA OCBC LENGKONG TIGA - FAIRPRICE SINGAPORE 410110,"(1.323976876, 103.9106896)"
MUMTAZ ENTERPRISE PTE LTD,415812,1.33724723,103.9038529,23 KAKI BUKIT ROAD 3 THE LEO SINGAPORE 415812,"(1.33724723, 103.9038529)"
FRIENDS HYPERMART PTE. LTD.,415814,1.337217119,103.9066573,7 KAKI BUKIT AVENUE 3 DBS KAKI BUKIT RECREATION CENTRE SINGAPORE 415814,"(1.337217119, 103.9066573)"
AZ SUPERMART PTE. LTD.,415920,1.338094456,103.9099565,39 KAKI BUKIT AVENUE 3 DBS 5 STAR DORMITORY SINGAPORE 415920,"(1.338094456, 103.9099565)"
NTUC Fairprice Co-operative Ltd,420002,1.315521869,103.8989922,2 JOO CHIAT ROAD OCBC JOO CHIAT ROAD - FAIRPRICE SINGAPORE 420002,"(1.315521869, 103.8989922)"
NTUC Fairprice Co-operative Ltd,428751,1.303861208,103.9028714,30 EAST COAST ROAD DBS NTUC KATONG V SINGAPORE 428751,"(1.303861208, 103.9028714)"
COLD STORAGE SINGAPORE (1983) PTE LTD,428802,1.305223062,103.9050439,112 EAST COAST ROAD UOB I12 KATONG AUTOLOBBY SINGAPORE 428802,"(1.305223062, 103.9050439)"
TANESEI RETAILING PTE. LTD.,428802,1.305223062,103.9050439,112 EAST COAST ROAD UOB I12 KATONG AUTOLOBBY SINGAPORE 428802,"(1.305223062, 103.9050439)"
NTUC Fairprice Co-operative Ltd,428932,1.308361647,103.9079888,255 EAST COAST ROAD CITIBANK ESSO EAST COAST SINGAPORE 428932,"(1.308361647, 103.9079888)"
ANGLISS SINGAPORE PTE LTD,437096,1.306086558,103.8961504,313C TANJONG KATONG ROAD SINGAPORE 437096,"(1.306086558, 103.8961504)"
"CHEE MIN KUAN, SIMON",437112,1.303733874,103.8964983,342A TANJONG KATONG ROAD SINGAPORE 437112,"(1.303733874, 103.8964983)"
COLD STORAGE SINGAPORE (1983) PTE LTD,437157,1.314742388,103.8945519,11 TANJONG KATONG ROAD DNC (EDUCATION) PTE. LTD. SINGAPORE 437157,"(1.314742388, 103.8945519)"
TANESEI RETAILING PTE. LTD.,437157,1.314742388,103.8945519,11 TANJONG KATONG ROAD DNC (EDUCATION) PTE. LTD. SINGAPORE 437157,"(1.314742388, 103.8945519)"
COLD STORAGE SINGAPORE (1983) PTE LTD,440056,1.305605694,103.9153761,56 MARINE TERRACE MARINE TERRACE HAVEN SINGAPORE 440056,"(1.305605694, 103.9153761)"
COLD STORAGE SINGAPORE (1983) PTE LTD,448912,1.307060757,103.9237698,15 SIGLAP ROAD MANDARIN GARDENS SINGAPORE 448912,"(1.307060757, 103.9237698)"
COLD STORAGE SINGAPORE (1983) PTE LTD,449269,1.30106068,103.9053395,80 MARINE PARADE ROAD DBS DBS TREASURES AT PARKWAY PARADE SINGAPORE 449269,"(1.30106068, 103.9053395)"
COLD STORAGE SINGAPORE (1983) PTE LTD,449269,1.30106068,103.9053395,80 MARINE PARADE ROAD DBS DBS TREASURES AT PARKWAY PARADE SINGAPORE 449269,"(1.30106068, 103.9053395)"
FOUR SEASONS ORGANIC MARKET PTE. LTD.,449269,1.30106068,103.9053395,80 MARINE PARADE ROAD DBS DBS TREASURES AT PARKWAY PARADE SINGAPORE 449269,"(1.30106068, 103.9053395)"
THE BUTCHER (SINGAPORE) PTE. LTD.,449269,1.30106068,103.9053395,80 MARINE PARADE ROAD DBS DBS TREASURES AT PARKWAY PARADE SINGAPORE 449269,"(1.30106068, 103.9053395)"
CHO YONG BEOM,449269,1.30106068,103.9053395,80 MARINE PARADE ROAD DBS DBS TREASURES AT PARKWAY PARADE SINGAPORE 449269,"(1.30106068, 103.9053395)"
NTUC Fairprice Co-operative Ltd,449411,1.301337465,103.9071772,6 MARINE PARADE CENTRAL OCBC MARINE PARADE CENTRAL - FAIRPRICE SINGAPORE 449411,"(1.301337465, 103.9071772)"
COLD STORAGE SINGAPORE (1983) PTE LTD,458278,1.312753297,103.9236579,2 FIRST STREET UOB SIGLAP V SINGAPORE 458278,"(1.312753297, 103.9236579)"
ZAC MEAT & POULTRY PTE LTD,458322,1.315843372,103.9261595,1K FIGARO STREET OPERA ESTATE SINGAPORE 458322,"(1.315843372, 103.9261595)"
NTUC Fairprice Co-operative Ltd,459125,1.312307522,103.9252345,934 EAST COAST ROAD OCBC EAST COAST ROAD - FAIRPRICE SINGAPORE 459125,"(1.312307522, 103.9252345)"
PRIME SUPERMARKET (1996) PTE LTD,460018,1.320527715,103.9347643,18 BEDOK SOUTH ROAD UOB BEDOK SOUTH ROAD SINGAPORE 460018,"(1.320527715, 103.9347643)"
Teo Bobby,460029,1.324760401,103.9243702,29 CHAI CHEE AVENUE ANSAR GARDEN SINGAPORE 460029,"(1.324760401, 103.9243702)"
NTUC Fairprice Co-operative Ltd,460089,1.332956837,103.9382209,89 BEDOK NORTH STREET 4 OCBC BEDOK NORTH ST 4 - FAIRPRICE SINGAPORE 460089,"(1.332956837, 103.9382209)"
SHENG SIONG SUPERMARKET PTE LTD,460115,1.331433688,103.9368654,115 BEDOK NORTH ROAD PCF SPARKLETOTS PRESCHOOL @ FENGSHAN 115 (CC) SINGAPORE 460115,"(1.331433688, 103.9368654)"
SHENG SIONG SUPERMARKET PTE LTD,460209,1.324645447,103.9311115,209 NEW UPPER CHANGI ROAD BETHESDA COMMUNITY SINGAPORE 460209,"(1.324645447, 103.9311115)"
NTUC Fairprice Co-operative Ltd,460212,1.325918415,103.931687,212 BEDOK NORTH STREET 1 OCBC BEDOK NORTH ST 1 - FAIRPRICE SINGAPORE 460212,"(1.325918415, 103.931687)"
COLD STORAGE SINGAPORE (1983) PTE LTD,460509,1.333066482,103.9310914,509 BEDOK NORTH STREET 3 LITTLE PROFESSORS EDUCATION CENTRE @ BEDOK LLP SINGAPORE 460509,"(1.333066482, 103.9310914)"
MELON SUPERMARKET PTE LTD,460510,1.332336556,103.9304968,510 BEDOK NORTH STREET 3 UOB BEDOK NORTH STREET 3 SINGAPORE 460510,"(1.332336556, 103.9304968)"
PRIME SUPERMARKET LIMITED?,461025,1.323290228,103.9241518,25A CHAI CHEE ROAD OCBC CHAI CHEE ROAD - PRIME SUPERMARKET SINGAPORE 461025,"(1.323290228, 103.9241518)"
NTUC Fairprice Co-operative Ltd,461057,1.324252012,103.9415719,57 NEW UPPER CHANGI ROAD OCBC NEW UPPER CHANGI ROAD - FAIRPRICE SINGAPORE 461057,"(1.324252012, 103.9415719)"
SHENG SIONG SUPERMARKET PTE LTD,461539,1.332405066,103.9255013,539A BEDOK NORTH STREET 3 OCBC BEDOK NORTH SINGAPORE 461539,"(1.332405066, 103.9255013)"
NTUC Fairprice Co-operative Ltd,467360,1.324793606,103.9293604,311 NEW UPPER CHANGI ROAD OCBC BEDOK MALL - FAIRPRICE SINGAPORE 467360,"(1.324793606, 103.9293604)"
THNG CHYE BOON,469526,1.331272339,103.9472683,343 BEDOK ROAD SINGAPORE 469526,"(1.331272339, 103.9472683)"
COLD STORAGE SINGAPORE (1983) PTE LTD,469560,1.331436231,103.9482603,348 BEDOK ROAD DBS SHOP N SAVE BEDOK MARKET PLACE SINGAPORE 469560,"(1.331436231, 103.9482603)"
GOLDEN TICKET SINGAPORE PTE. LTD.,469979,1.311795442,103.9368945,54 BAYSHORE ROAD BAYSHORE PARK SINGAPORE 469979,"(1.311795442, 103.9368945)"
COLD STORAGE SINGAPORE (1983) PTE LTD,470631,1.332958733,103.9149418,631 BEDOK RESERVOIR ROAD OCBC BEDOK RESERVOIR RD - 7 ELEVEN SINGAPORE 470631,"(1.332958733, 103.9149418)"
CHUA & NG PTE. LTD.,470632,1.332050526,103.9141462,632 BEDOK RESERVOIR ROAD OCBC BEDOK RESERVOIR RD - MCDONALDS SINGAPORE 470632,"(1.332050526, 103.9141462)"
NTUC Fairprice Co-operative Ltd,470745,1.337419105,103.921783,745 BEDOK RESERVOIR ROAD OCBC BEDOK RESERVOIR RD - FAIRPRICE SINGAPORE 470745,"(1.337419105, 103.921783)"
SHENG SIONG SUPERMARKET PTE LTD,471739,1.338242032,103.9233039,739A BEDOK RESERVOIR ROAD RESERVOIR VILLAGE SINGAPORE 471739,"(1.338242032, 103.9233039)"
NTUC Fairprice Co-operative Ltd,486018,1.334755766,103.963894,8 CHANGI BUSINESS PARK AVENUE 1 OCBC CHANGI BUSINESS PARK - FAIRPRICE SINGAPORE 486018,"(1.334755766, 103.963894)"
L M MEAT PTE. LTD,486038,1.33432516,103.9623893,5 CHANGI BUSINESS PARK CENTRAL 1 OCBC CHANGI CITY POINT - FAIRPRICE SINGAPORE 486038,"(1.33432516, 103.9623893)"
COLD STORAGE SINGAPORE (1983) PTE LTD,486442,1.321447681,103.9554195,20 EASTWOOD ROAD EASTWOOD CENTRE SINGAPORE 486442,"(1.321447681, 103.9554195)"
COLD STORAGE SINGAPORE (1983) PTE LTD,487048,1.331775815,103.9462012,430 UPPER CHANGI ROAD EAST VILLAGE SINGAPORE 487048,"(1.331775815, 103.9462012)"
CP MANAGEMENT SERVICES PRIVATE LIMITED,498820,1.327366021,104.0042442,317 TANAH MERAH COAST ROAD CHANGI AIR BASE (EAST) SINGAPORE 498820,"(1.327366021, 104.0042442)"
AZMI SHOP PTE. LTD.,506867,1.356790867,103.9636976,42 FLORA DRIVE PALM ISLES SINGAPORE 506867,"(1.356790867, 103.9636976)"
SHENG SIONG SUPERMARKET PTE LTD,510258,1.367066342,103.9646356,258 PASIR RIS STREET 21 UOB LOYANG POINT SINGAPORE 510258,"(1.367066342, 103.9646356)"
COLD STORAGE SINGAPORE (1983) PTE LTD,510259,1.36645364,103.9645985,259 PASIR RIS STREET 21 OCBC LOYANG POINT SINGAPORE 510259,"(1.36645364, 103.9645985)"
COLD STORAGE SINGAPORE (1983) PTE LTD,510440,1.368998011,103.9586476,440 PASIR RIS DRIVE 4 OCBC PASIR RIS DRIVE 4 - GIANT SINGAPORE 510440,"(1.368998011, 103.9586476)"
GOLDEN BAMBOO BROS SUPERMART PTE LTD,510625,1.37860239,103.9419782,625 ELIAS ROAD CHERIE HEARTS KIDZ CAMPUS PTE. LTD. SINGAPORE 510625,"(1.37860239, 103.9419782)"
NTUC Fairprice Co-operative Ltd,510734,1.379698021,103.9362708,734 PASIR RIS STREET 72 OCBC PASIR RIS WEST PLAZA - FAIRPRICE SINGAPORE 510734,"(1.379698021, 103.9362708)"
SHENG SIONG SUPERMARKET PTE LTD,514527,1.369686255,103.9479224,527D PASIR RIS STREET 51 COSTA RIS SINGAPORE 514527,"(1.369686255, 103.9479224)"
RAW MARKET PTE. LTD.,518180,1.375588309,103.9608397,11 PASIR RIS LINK SEASTRAND SINGAPORE 518180,"(1.375588309, 103.9608397)"
NTUC Fairprice Co-operative Ltd,518457,1.372519397,103.949801,1 PASIR RIS CENTRAL STREET 3 PASIR RIS CENTRAL POST OFFICE SINGAPORE 518457,"(1.372519397, 103.949801)"
NTUC Fairprice Co-operative Ltd,519599,1.379127179,103.9554448,1 PASIR RIS CLOSE COSTA SANDS RESORT (DOWNTOWN EAST) SINGAPORE 519599,"(1.379127179, 103.9554448)"
SHAHUL HAMEED S/O ABDUSALAM,520280,1.347535197,103.9517028,280 TAMPINES STREET 22 SINGAPORE 520280,"(1.347535197, 103.9517028)"
NTUC Fairprice Co-operative Ltd,520475,1.360323324,103.953126,475 TAMPINES STREET 44 OCBC TAMPINES STREET 44 - FAIRPRICE SINGAPORE 520475,"(1.360323324, 103.953126)"
SHENG SIONG SUPERMARKET PTE LTD,520506,1.35590219,103.9459122,506 TAMPINES CENTRAL 1 OCBC TAMPINES CENTRAL 1 SINGAPORE 520506,"(1.35590219, 103.9459122)"
PRIME SUPERMARKET LIMITED?,520823,1.348732845,103.9340102,823 TAMPINES STREET 81 OCBC TAMPINES STREET 81 - PRIME SUPERMARKET SINGAPORE 520823,"(1.348732845, 103.9340102)"
COLD STORAGE SINGAPORE (1983) PTE LTD,520829,1.349221002,103.9349143,829 TAMPINES STREET 81 UOB TAMPINES ST 81 SINGAPORE 520829,"(1.349221002, 103.9349143)"
NTUC Fairprice Co-operative Ltd,521107,1.348329155,103.9484307,107 TAMPINES STREET 11 OCBC TAMPINES STREET 11 - FAIRPRICE SINGAPORE 521107,"(1.348329155, 103.9484307)"
NTUC Fairprice Co-operative Ltd,521138,1.345319549,103.9453847,138 TAMPINES STREET 11 OCBC TAMPINES STREET 11 - 7 ELEVEN SINGAPORE 521138,"(1.345319549, 103.9453847)"
YES SUPERMARKET PTE LTD,521138,1.345319549,103.9453847,138 TAMPINES STREET 11 OCBC TAMPINES STREET 11 - 7 ELEVEN SINGAPORE 521138,"(1.345319549, 103.9453847)"
NTUC Fairprice Co-operative Ltd,521866,1.355393063,103.9344293,866A TAMPINES STREET 83 OCBC TAMPINES CENTRAL COUMMUNITY CENTRE - FAIRPRICE SINGAPORE 521866,"(1.355393063, 103.9344293)"
YES SUPERMARKET PTE LTD,522201,1.353435453,103.9530237,201B TAMPINES STREET 21 OCBC TAMPINES STREET 21 SINGAPORE 522201,"(1.353435453, 103.9530237)"
COLD STORAGE SINGAPORE (1983) PTE LTD,528765,1.372224562,103.9320462,21 TAMPINES NORTH DRIVE 2 GIANT SINGAPORE 528765,"(1.372224562, 103.9320462)"
NTUC Fairprice Co-operative Ltd,528833,1.342691998,103.9530508,3 SIMEI STREET 6 UOB EASTPOINT MALL AUTO LOBBY SINGAPORE 528833,"(1.342691998, 103.9530508)"
COLD STORAGE SINGAPORE (1983) PTE LTD,529286,1.354364938,103.9600422,9 TAMPINES STREET 32 TAMPINES MART SINGAPORE 529286,"(1.354364938, 103.9600422)"
NTUC Fairprice Co-operative Ltd,529509,1.35227804,103.9437277,2 TAMPINES CENTRAL 5 FILMGARDE AT CENTURY SQUARE SINGAPORE 529509,"(1.35227804, 103.9437277)"
NTUC Fairprice Co-operative Ltd,529510,1.352672322,103.944388,4 TAMPINES CENTRAL 5 UOB TAMPINES MALL AUTOLOBBY SINGAPORE 529510,"(1.352672322, 103.944388)"
COLD STORAGE SINGAPORE (1983) PTE LTD,529536,1.354204304,103.945052,10 TAMPINES CENTRAL 1 HSBC TAMPINES BRANCH SINGAPORE 529536,"(1.354204304, 103.945052)"
LIM KING CHEW,530006,1.362714463,103.8939805,6 HOUGANG AVENUE 3 SINGAPORE 530006,"(1.362714463, 103.8939805)"
PRIME SUPERMARKET (1996) PTE LTD,530106,1.353703135,103.8906808,106 HOUGANG AVENUE 1 OCBC HOUGANG AVE 1 - 7 ELEVEN SINGAPORE 530106,"(1.353703135, 103.8906808)"
NTUC Fairprice Co-operative Ltd,530202,1.357575584,103.8840385,202 HOUGANG STREET 21 OCBC HOUGANG ST 21 - FAIRPRICE SINGAPORE 530202,"(1.357575584, 103.8840385)"
COLD STORAGE SINGAPORE (1983) PTE LTD,530205,1.359496648,103.8850799,205 HOUGANG STREET 21 JUNIOR CHAMPS @ KOVAN PTE. LTD. SINGAPORE 530205,"(1.359496648, 103.8850799)"
TAN CHUAN BOON,530309,1.366205547,103.8951524,309 HOUGANG AVENUE 5 SINGAPORE 530309,"(1.366205547, 103.8951524)"
NTUC Fairprice Co-operative Ltd,530476,1.377433378,103.9037136,476 UPPER SERANGOON VIEW DBS NTUC NEW UPPER SERANGOON VIEW SINGAPORE 530476,"(1.377433378, 103.9037136)"
ANG MO SUPERMARKET PTE LTD,530642,1.371703435,103.879939,642 HOUGANG AVENUE 8 PCF SPARKLETOTS PRESCHOOL@ANG MO KIO-HOUGANG 642 (CC) SINGAPORE 530642,"(1.371703435, 103.879939)"
NTUC Fairprice Co-operative Ltd,530682,1.373615877,103.8857589,682 HOUGANG AVENUE 4 OCBC HOUGANG AVE 4 - FAIRPRICE SINGAPORE 530682,"(1.373615877, 103.8857589)"
COLD STORAGE SINGAPORE (1983) PTE LTD,530683,1.373321226,103.8863655,683 HOUGANG AVENUE 8 UOB HOUGANG NORTH AUTOLOBBY SINGAPORE 530683,"(1.373321226, 103.8863655)"
COLD STORAGE SINGAPORE (1983) PTE LTD,530982,1.380894989,103.8793232,982 BUANGKOK CRESCENT DBS BUANGKOK CRESCENT SINGAPORE 530982,"(1.380894989, 103.8793232)"
PRIME SUPERMARKET (1996) PTE LTD,531159,1.351893366,103.8794445,159A HOUGANG STREET 11 MULTI STOREY CAR PARK SINGAPORE 531159,"(1.351893366, 103.8794445)"
SARATHI STORES PTE LTD,534821,1.337484929,103.8870042,91 UPPER PAYA LEBAR ROAD SINGAPORE 534821,"(1.337484929, 103.8870042)"
SIVAMANI MINIMART PTE LTD,534846,1.338893877,103.8861149,141A UPPER PAYA LEBAR ROAD SINGAPORE 534846,"(1.338893877, 103.8861149)"
NTUC Fairprice Co-operative Ltd,538692,1.375605071,103.879455,1 HOUGANG STREET 91 OCBC HOUGANG ST 91 - FAIRPRICE SINGAPORE 538692,"(1.375605071, 103.879455)"
COLD STORAGE SINGAPORE (1983) PTE LTD,538719,1.379317835,103.8878471,21 HOUGANG STREET 51 DBS SHOP N SAVE HOUGANG GREEN SHOPPING MALL SINGAPORE 538719,"(1.379317835, 103.8878471)"
NTUC Fairprice Co-operative Ltd,538766,1.372311864,103.8936616,90 HOUGANG AVENUE 10 SUNFLOWER PRESCHOOL @ HOUGANG (PTE. LTD.) SINGAPORE 538766,"(1.372311864, 103.8936616)"
NTUC Fairprice Co-operative Ltd,538767,1.371710178,103.8942478,100 HOUGANG AVENUE 10 OCBC HOUGANG AVE 10 - FAIRPRICE SINGAPORE 538767,"(1.371710178, 103.8942478)"
NTUC Fairprice Co-operative Ltd,540118,1.385553097,103.9019607,118 RIVERVALE DRIVE HDB SENGKANG BRANCH SINGAPORE 540118,"(1.385553097, 103.9019607)"
PRIME SUPERMARKET LIMITED?,540263,1.394848165,103.8960423,263 COMPASSVALE STREET COMPASSVALE NORTH GATE SINGAPORE 540263,"(1.394848165, 103.8960423)"
COLD STORAGE SINGAPORE (1983) PTE LTD,540266,1.381979084,103.8970881,266 COMPASSVALE BOW STAR LEARNERS @ SENGKANG PTE. LTD. SINGAPORE 540266,"(1.381979084, 103.8970881)"
NTUC Fairprice Co-operative Ltd,540279,1.386218354,103.8930383,279 SENGKANG EAST AVENUE OCBC SENGKANG EAST AVE - FAIRPRICE SINGAPORE 540279,"(1.386218354, 103.8930383)"
U STARS SUPERMARKET PTE. LTD.,540330,1.396849799,103.8892468,330 ANCHORVALE STREET ANCHORVALE HARVEST SINGAPORE 540330,"(1.396849799, 103.8892468)"
NTUC Fairprice Co-operative Ltd,543277,1.382379847,103.8938004,277C COMPASSVALE LINK OCBC COMPASSVALE LINK - FAIRPRICE SINGAPORE 543277,"(1.382379847, 103.8938004)"
NTUC Fairprice Co-operative Ltd,545082,1.392217327,103.9044731,11 RIVERVALE CRESCENT OCBC RIVERVALE MALL - FAIRPRICE SINGAPORE 545082,"(1.392217327, 103.9044731)"
THONG CHEW FOOD INDUSTRIES PTE LTD,545553,1.356760561,103.8760016,36 YIO CHU KANG ROAD SINGAPORE 545553,"(1.356760561, 103.8760016)"
Teo Bobby,550253,1.353682695,103.8709133,253 SERANGOON CENTRAL DRIVE OCBC SERANGGON CENTRAL DRIVE - FAIRPRICE SINGAPORE 550253,"(1.353682695, 103.8709133)"
COLD STORAGE SINGAPORE (1983) PTE LTD,550266,1.353232128,103.8715036,266 SERANGOON CENTRAL DRIVE MARINE PARADE TOWN COUNCIL (SERANGOON OFFICE) SINGAPORE 550266,"(1.353232128, 103.8715036)"
NTUC Fairprice Co-operative Ltd,552152,1.369799416,103.8730358,152B SERANGOON NORTH AVENUE 1 OCBC SERANGOON NORTH AVE 1 - FAIRPRICE SINGAPORE 552152,"(1.369799416, 103.8730358)"
PRIME SUPERMARKET (1996) PTE LTD,552542,1.373683929,103.871417,542B SERANGOON NORTH AVENUE 3 MRC KINDERGARTEN (SERANGOON NORTH) SINGAPORE 552542,"(1.373683929, 103.871417)"
SHENG SIONG SUPERMARKET PTE LTD,554913,1.375653673,103.8720121,19 SERANGOON NORTH AVENUE 5 OCBC SERANGOON NORTH AVE 5 - SHENG SIONG SINGAPORE 554913,"(1.375653673, 103.8720121)"
SFERM PTE. LTD.,555974,1.36428137,103.8651339,78A SERANGOON GARDEN WAY SERANGOON GARDEN ESTATE SINGAPORE 555974,"(1.36428137, 103.8651339)"
NTUC Fairprice Co-operative Ltd,556083,1.350888822,103.8721157,23 SERANGOON CENTRAL THE VETERINARY CLINIC PTE LTD (NEX MALL BRANCH) SINGAPORE 556083,"(1.350888822, 103.8721157)"
COLD STORAGE SINGAPORE (1983) PTE LTD,556083,1.350888822,103.8721157,23 SERANGOON CENTRAL THE VETERINARY CLINIC PTE LTD (NEX MALL BRANCH) SINGAPORE 556083,"(1.350888822, 103.8721157)"
NTUC Fairprice Co-operative Ltd,556679,1.365280606,103.8651012,1 MAJU AVENUE DBS SERANGOON GARDEN BRANCH SINGAPORE 556679,"(1.365280606, 103.8651012)"
SHENG SIONG SUPERMARKET PTE LTD,560122,1.370188607,103.8434132,122 ANG MO KIO AVENUE 3 SINGAPORE 560122,"(1.370188607, 103.8434132)"
COLD STORAGE SINGAPORE (1983) PTE LTD,560161,1.374140215,103.8396733,161 ANG MO KIO AVENUE 4 NEE SOON TOWN COUNCIL (KEBUN BARU SERVICE CENTRE) SINGAPORE 560161,"(1.374140215, 103.8396733)"
NTUC Fairprice Co-operative Ltd,560215,1.36650736,103.8417924,215 ANG MO KIO AVENUE 1 OCBC ANG MO KIO AVE 1 - FAIRPRICE SINGAPORE 560215,"(1.36650736, 103.8417924)"
SHENG SIONG SUPERMARKET PTE LTD,560233,1.36754925,103.8367406,233 ANG MO KIO AVENUE 3 KEBUN BARU PALM VIEW SINGAPORE 560233,"(1.36754925, 103.8367406)"
G8 MART PTE. LTD.,560421,1.365384226,103.852967,421 ANG MO KIO AVENUE 10 TECK GHEE HEARTLANDS SINGAPORE 560421,"(1.365384226, 103.852967)"
COLD STORAGE SINGAPORE (1983) PTE LTD,560525,1.372645696,103.8538907,525 ANG MO KIO AVENUE 10 INTEMEDICAL 24 HR CLINIC SINGAPORE 560525,"(1.372645696, 103.8538907)"
NTUC Fairprice Co-operative Ltd,560712,1.371409211,103.8470829,712 ANG MO KIO AVENUE 6 OCBC ANG MO KIO AVE 6 - FAIRPRICE SINGAPORE 560712,"(1.371409211, 103.8470829)"
COLD STORAGE SINGAPORE (1983) PTE LTD,563316,1.364625403,103.847677,316B ANG MO KIO STREET 31 TECK GHEE VISTA SINGAPORE 563316,"(1.364625403, 103.847677)"
NTUC Fairprice Co-operative Ltd,567720,1.377892049,103.856412,2 ANG MO KIO DRIVE DBS ITE COLLEGE CENTRAL BRANCH SINGAPORE 567720,"(1.377892049, 103.856412)"
NTUC Fairprice Co-operative Ltd,569933,1.369236276,103.8487222,53 ANG MO KIO AVENUE 3 DBS ANG MO KIO - BASEMENT 1 SINGAPORE 569933,"(1.369236276, 103.8487222)"
TAN SUAN GUAY,570116,1.34780072,103.8493161,116 BISHAN STREET 12 BISHAN VIEW SINGAPORE 570116,"(1.34780072, 103.8493161)"
NTUC Fairprice Co-operative Ltd,570279,1.357222831,103.8437853,279 BISHAN STREET 24 OCBC BISHAN ST 24 - FAIRPRICE SINGAPORE 570279,"(1.357222831, 103.8437853)"
NTUC Fairprice Co-operative Ltd,570510,1.348888439,103.849692,510 BISHAN STREET 13 OCBC BISHAN ST 13 - FAIRPRICE SINGAPORE 570510,"(1.348888439, 103.849692)"
COLD STORAGE SINGAPORE (1983) PTE LTD,570512,1.349622352,103.8498817,512 BISHAN STREET 13 HDB BISHAN BRANCH SINGAPORE 570512,"(1.349622352, 103.8498817)"
NTUC Fairprice Co-operative Ltd,574408,1.355028857,103.8310533,301 UPPER THOMSON ROAD DBS THOMSON BRANCH SINGAPORE 574408,"(1.355028857, 103.8310533)"
SHENG SIONG SUPERMARKET PTE LTD,574424,1.351769141,103.8360677,200 UPPER THOMSON ROAD THOMSON IMPERIAL COURT SINGAPORE 574424,"(1.351769141, 103.8360677)"
COLD STORAGE SINGAPORE (1983) PTE LTD,577729,1.373079494,103.8296308,16 JALAN KURAS SEMBAWANG HILLS ESTATE SINGAPORE 577729,"(1.373079494, 103.8296308)"
NTUC Fairprice Co-operative Ltd,579837,1.350316,103.8484966,9 BISHAN PLACE DBS NTUC JUNCTION 8 SHOPPING CENTRE SINGAPORE 579837,"(1.350316, 103.8484966)"
COLD STORAGE SINGAPORE (1983) PTE LTD,588177,1.342412642,103.7765394,144 UPPER BUKIT TIMAH ROAD DBS BEAUTY WORLD CENTRE SINGAPORE 588177,"(1.342412642, 103.7765394)"
NTUC Fairprice Co-operative Ltd,588996,1.338631653,103.7785854,1 JALAN ANAK BUKIT OCBC BUKIT TIMAH PLAZA - FAIRPRICE SINGAPORE 588996,"(1.338631653, 103.7785854)"
COLD STORAGE SINGAPORE (1983) PTE LTD,589472,1.336603792,103.7838767,896 DUNEARN ROAD EMBASSY OF THE REPUBLIC OF COSTA RICA SINGAPORE 589472,"(1.336603792, 103.7838767)"
CENTURY GLOBAL PTE. LTD.,589820,1.335862577,103.7866168,5B BINJAI PARK BINJAI PARK SINGAPORE 589820,"(1.335862577, 103.7866168)"
ALTERNATIVE SELECTION PTE. LTD.,589831,1.336614756,103.7869692,29B BINJAI PARK BINJAI PARK SINGAPORE 589831,"(1.336614756, 103.7869692)"
COLD STORAGE SINGAPORE (1983) PTE LTD,597071,1.323250401,103.7672601,41 SUNSET WAY BRIGHTON MONTESSORI INTERNATIONAL PRE-SCHOOL @ SUNSET SINGAPORE 597071,"(1.323250401, 103.7672601)"
LAURELS FOODS SUPPLIERS PTE LTD,597626,1.320441712,103.7789725,"2 PANDAN VALLEY PANDAN VALLEY, ACACIA COURT SINGAPORE 597626","(1.320441712, 103.7789725)"
ZAC MEAT & POULTRY PTE LTD,599601,1.342019632,103.7750642,14 CHUN TIN ROAD SINGAPORE 599601,"(1.342019632, 103.7750642)"
NTUC Fairprice Co-operative Ltd,600037,1.320520268,103.7426515,37 TEBAN GARDENS ROAD OCBC TEBAN GARDENS ROAD - FAIRPRICE SINGAPORE 600037,"(1.320520268, 103.7426515)"
SHENG SIONG SUPERMARKET PTE LTD,600061,1.322136363,103.7382928,61 TEBAN GARDENS ROAD MULTI STOREY CAR PARK-TEBAN PLACE SINGAPORE 600061,"(1.322136363, 103.7382928)"
ONE EIGHT SHOP PTE. LTD.,600104,1.336584653,103.7376233,104 JURONG EAST STREET 13 JURONG EAST VILLE SINGAPORE 600104,"(1.336584653, 103.7376233)"
NTUC Fairprice Co-operative Ltd,600135,1.333851658,103.7398264,135 JURONG GATEWAY ROAD OCBC JURONG GATEWAY ROAD - FAIRPRICE SINGAPORE 600135,"(1.333851658, 103.7398264)"
NTUC Fairprice Co-operative Ltd,600345,1.345512106,103.7312191,345 JURONG EAST STREET 31 OCBC JURONG EAST ST 31 - FAIRPRICE SINGAPORE 600345,"(1.345512106, 103.7312191)"
BIG BOX SINGAPORE PTE. LTD.,608521,1.331832699,103.7448792,1 VENTURE AVENUE POSSO PRESCHOOL @ BIG BOX PTE. LTD. SINGAPORE 608521,"(1.331832699, 103.7448792)"
ISETAN (SINGAPORE) LIMITED?,608532,1.334025296,103.742586,3 GATEWAY DRIVE JURONG EAST POST OFFICE SINGAPORE 608532,"(1.334025296, 103.742586)"
KINGS SUPERMARKET PTE. LTD.,608537,1.318002115,103.7319829,23 PENJURU WALK CASSIA AT PENJURU SINGAPORE 608537,"(1.318002115, 103.7319829)"
SHENG SIONG SUPERMARKET PTE LTD,608538,1.319227711,103.7333691,27 PENJURU WALK PENJURU RECREATION CENTRE SINGAPORE 608538,"(1.319227711, 103.7333691)"
VINAYAK TRADERS PTE. LTD.,608538,1.319227711,103.7333691,27 PENJURU WALK PENJURU RECREATION CENTRE SINGAPORE 608538,"(1.319227711, 103.7333691)"
HAJI TRADERS PTE. LTD,608538,1.319227711,103.7333691,27 PENJURU WALK PENJURU RECREATION CENTRE SINGAPORE 608538,"(1.319227711, 103.7333691)"
ARCHANA PROVISION STORES PTE. LTD,608538,1.319227711,103.7333691,27 PENJURU WALK PENJURU RECREATION CENTRE SINGAPORE 608538,"(1.319227711, 103.7333691)"
GURU'S MARKETING PTE. LTD.,608538,1.319227711,103.7333691,27 PENJURU WALK PENJURU RECREATION CENTRE SINGAPORE 608538,"(1.319227711, 103.7333691)"
NTUC Fairprice Co-operative Ltd,608549,1.33255233,103.7432622,50 JURONG GATEWAY ROAD OCBC JEM - JURONG EAST BRANCH SINGAPORE 608549,"(1.33255233, 103.7432622)"
KINGSMART PTE. LTD.,608557,1.316197703,103.7325418,30 PENJURU PLACE JURONG PENJURU DORMITORY 2 SINGAPORE 608557,"(1.316197703, 103.7325418)"
TAY CHONG BENG,608568,1.338312349,103.7535504,19 TOH GUAN ROAD EAST TOH GUAN DORMITORY SINGAPORE 608568,"(1.338312349, 103.7535504)"
T S J INDUSTRIAL (S) PTE. LTD.,608586,1.336830976,103.7543414,48 TOH GUAN ROAD EAST UOB ENTERPRISE HUB SINGAPORE 608586,"(1.336830976, 103.7543414)"
SHAFEN SUPERMARKET & TRADING (S) PTE. LTD.,608596,1.336417982,103.7518074,28 TOH GUAN ROAD EAST WESTLITE TOH GUAN DORMITORY SINGAPORE 608596,"(1.336417982, 103.7518074)"
COLD STORAGE SINGAPORE (1983) PTE LTD,609601,1.334917588,103.7468771,2 JURONG EAST STREET 21 OCBC IMM BUILDING - NEAR FOOD KIOSK SECTION SINGAPORE 609601,"(1.334917588, 103.7468771)"
NTUC Fairprice Co-operative Ltd,610063,1.332059386,103.7224529,63 YUNG KUANG ROAD OCBC YUNG KUANG ROAD - FAIRPRICE SINGAPORE 610063,"(1.332059386, 103.7224529)"
NTUC Fairprice Co-operative Ltd,610399,1.334665446,103.7206855,399 YUNG SHENG ROAD JURONG-CLEMENTI TOWN COUNCIL (TAMAN JURONG COLLECTION & SERVICE CENTRE) SINGAPORE 610399,"(1.334665446, 103.7206855)"
SHENG SIONG SUPERMARKET PTE LTD,618642,1.325468075,103.7252215,3 YUAN CHING ROAD OCBC YUAN CHING ROAD - SHENG SIONG SUPERMARKET SINGAPORE 618642,"(1.325468075, 103.7252215)"
CHENNAI TRADING & SUPERMART PTE. LTD.,619392,1.321078451,103.727298,1 JALAN PAPAN TERUSAN RECREATION CENTRE SINGAPORE 619392,"(1.321078451, 103.727298)"
VINAYAK TRADERS PTE. LTD.,619392,1.321078451,103.727298,1 JALAN PAPAN TERUSAN RECREATION CENTRE SINGAPORE 619392,"(1.321078451, 103.727298)"
GURU'S MARKETING PTE. LTD.,619392,1.321078451,103.727298,1 JALAN PAPAN TERUSAN RECREATION CENTRE SINGAPORE 619392,"(1.321078451, 103.727298)"
ARCHANA SUPERMARKET PTE. LTD.,619392,1.321078451,103.727298,1 JALAN PAPAN TERUSAN RECREATION CENTRE SINGAPORE 619392,"(1.321078451, 103.727298)"
BFN FOODS PTE. LTD.,619396,1.322072015,103.7275458,5 JALAN PAPAN DBS WESTLITE DORMITORY (JALAN PAPAN) SINGAPORE 619396,"(1.322072015, 103.7275458)"
PHANG NEE ENTERPRISE PTE. LTD.,619415,1.321245723,103.7299698,2D JALAN PAPAN DBS AVERY LODGE SINGAPORE 619415,"(1.321245723, 103.7299698)"
KADER HASNA MARICAN,627851,1.333157773,103.6952921,17 KIAN TECK LANE BLUE STARS DORMITORY SINGAPORE 627851,"(1.333157773, 103.6952921)"
LI LI CHENG SUPERMARKET PTE. LTD.,628088,1.33212291,103.6990703,51 SOON LEE ROAD DBS SCAL RECREATION CENTRE SINGAPORE 628088,"(1.33212291, 103.6990703)"
NTUC Fairprice Co-operative Ltd,629117,1.324606649,103.6780964,1 JOO KOON CIRCLE DBS NTUC BENOI WAREHOUSE CLUB SINGAPORE 629117,"(1.324606649, 103.6780964)"
TUAS SOUTH MINIMART PTE. LTD.,636906,1.272693819,103.6372626,6 TUAS SOUTH STREET 15 DBS CDPL DORMITORY (TUAS) SINGAPORE 636906,"(1.272693819, 103.6372626)"
SADIA SUPERMARKET & TRADING (S) PTE. LTD.,636937,1.270201988,103.6344249,12 TUAS SOUTH STREET 13 TUAS SOUTH RECREATION CENTRE SINGAPORE 636937,"(1.270201988, 103.6344249)"
NAWAS GLOBAL PTE. LTD.,636947,1.271645216,103.6336113,3 TUAS SOUTH STREET 12 TUAS SOUTH DORMITORY SINGAPORE 636947,"(1.271645216, 103.6336113)"
AJMAL SUPER MART PTE. LTD.,637285,1.313953297,103.6258157,70 TUAS SOUTH AVENUE 1 DBS TUAS VIEW DORMITORY SINGAPORE 637285,"(1.313953297, 103.6258157)"
LAI LAI SUPERMART PTE. LTD.,637285,1.313953297,103.6258157,70 TUAS SOUTH AVENUE 1 DBS TUAS VIEW DORMITORY SINGAPORE 637285,"(1.313953297, 103.6258157)"
NPS IMPEX PTE. LTD,637640,1.298917125,103.6275324,21 TUAS VIEW SQUARE SINGAPORE 637640,"(1.298917125, 103.6275324)"
SRI SURIYA'S MARKETING PTE. LTD.,637734,1.300911235,103.62779,115 TUAS VIEW WALK 1 WESTLINK TECHPARK SINGAPORE 637734,"(1.300911235, 103.62779)"
TU HEE TRADING PTE. LTD.,637738,1.30071425,103.6283153,123 TUAS VIEW WALK 1 WESTLINK TECHPARK SINGAPORE 637738,"(1.30071425, 103.6283153)"
JAYTARRANI PTE. LTD.,637778,1.298658064,103.6280881,32 TUAS VIEW SQUARE SINGAPORE 637778,"(1.298658064, 103.6280881)"
J.I.C. ENTERPRISES PTE. LTD.,637895,1.308100979,103.6315482,2 TUAS SOUTH STREET 2 SPRINTECS INDUSTRIAL BUILDING SINGAPORE 637895,"(1.308100979, 103.6315482)"
SADIA SUPERMARKET & TRADING (S) PTE. LTD.,638118,1.310694281,103.63019,14 TECH PARK CRESCENT TUAS TECHPARK SINGAPORE 638118,"(1.310694281, 103.63019)"
SRI SURIYA'S MARKETING PTE. LTD.,638121,1.311002407,103.6315723,11 TECH PARK CRESCENT TUAS TECHPARK SINGAPORE 638121,"(1.311002407, 103.6315723)"
SHANMUGHA ENTERPRISES PTE. LTD,638127,1.311467888,103.63034,5 TECH PARK CRESCENT TUAS TECHPARK SINGAPORE 638127,"(1.311467888, 103.63034)"
GOWRI'S GLOBAL MARKETING PTE. LTD.,638368,1.328820419,103.6771617,555 UPPER JURONG ROAD DBS JURONG APARTMENTS SINGAPORE 638368,"(1.328820419, 103.6771617)"
PRIME SUPERMARKET (1996) PTE LTD,639798,1.342890699,103.680613,50 NANYANG AVENUE NANYANG TECHNOLOGICAL UNIVERSITY (S2.1) SINGAPORE 639798,"(1.342890699, 103.680613)"
NTUC Fairprice Co-operative Ltd,640221,1.346373764,103.7124728,221 BOON LAY PLACE OCBC BOON LAY SHOPPING CENTRE FAIRPRICE SINGAPORE 640221,"(1.346373764, 103.7124728)"
NG TOH TET,640442,1.351518475,103.7194965,442 JURONG WEST AVENUE 1 SINGAPORE 640442,"(1.351518475, 103.7194965)"
COLD STORAGE SINGAPORE (1983) PTE LTD,640492,1.350085031,103.7247573,492 JURONG WEST STREET 41 CENTRAL 24-HR CLNIC (JURONG WEST) SINGAPORE 640492,"(1.350085031, 103.7247573)"
NTUC Fairprice Co-operative Ltd,640498,1.348333357,103.7243073,498 JURONG WEST STREET 41 OCBC JURONG WEST ST 41 - FAIRPRICE SINGAPORE 640498,"(1.348333357, 103.7243073)"
SHENG SIONG SUPERMARKET PTE LTD,640544,1.352393583,103.7157595,544 JURONG WEST STREET 42 SINGAPORE 640544,"(1.352393583, 103.7157595)"
COLD STORAGE SINGAPORE (1983) PTE LTD,640638,1.34172919,103.6972237,638 JURONG WEST STREET 61 UOB PIONEER MALL SINGAPORE 640638,"(1.34172919, 103.6972237)"
PRIME SUPERMARKET LIMITED?,640962,1.341809154,103.6915126,962 JURONG WEST STREET 91 SINGAPORE 640962,"(1.341809154, 103.6915126)"
NTUC Fairprice Co-operative Ltd,648331,1.339581968,103.7060064,63 JURONG WEST CENTRAL 3 STANDARD CHARTERED BANK JURONG POINT SINGAPORE 648331,"(1.339581968, 103.7060064)"
NTUC Fairprice Co-operative Ltd,648886,1.339452004,103.706685,1 JURONG WEST CENTRAL 2 UOB JURONG POINT SHOPPING CENTRE SINGAPORE 648886,"(1.339452004, 103.706685)"
SHENG SIONG SUPERMARKET PTE LTD,649486,1.348784897,103.7034157,7 JURONG WEST AVENUE 5 SINGAPORE 649486,"(1.348784897, 103.7034157)"
PRIME SUPERMARKET LIMITED?,650159,1.348575377,103.7427086,159 BUKIT BATOK STREET 11 JUST KIDS LEARNING PLACE PTE LTD SINGAPORE 650159,"(1.348575377, 103.7427086)"
NTUC Fairprice Co-operative Ltd,650166,1.347162362,103.7428079,166 BUKIT BATOK WEST AVENUE 8 OCBC BUKIT BATOK WEST AVE 8 - FAIRPRICE SINGAPORE 650166,"(1.347162362, 103.7428079)"
NTUC Fairprice Co-operative Ltd,650280,1.347622398,103.7571501,280 BUKIT BATOK EAST AVENUE 3 OCBC BUKIT BATOK EAST AVE 3 - FAIRPRICE SINGAPORE 650280,"(1.347622398, 103.7571501)"
COLD STORAGE SINGAPORE (1983) PTE LTD,650284,1.346699052,103.7572767,284 BUKIT BATOK EAST AVENUE 3 SINGAPORE 650284,"(1.346699052, 103.7572767)"
PRIME SUPERMARKET LIMITED?,650373,1.358946373,103.7503658,373 BUKIT BATOK STREET 31 LITTLE GREENHOUSE @ BUKIT BATOK PTE LTD SINGAPORE 650373,"(1.358946373, 103.7503658)"
COLD STORAGE SINGAPORE (1983) PTE LTD,650376,1.358317052,103.7495799,376 BUKIT BATOK STREET 31 SINGAPORE 650376,"(1.358317052, 103.7495799)"
SHENG SIONG SUPERMARKET PTE LTD,651154,1.347388255,103.7437047,154A BUKIT BATOK WEST AVENUE 8 OCBC BUKIT BATOK WEST AVE 8 SINGAPORE 651154,"(1.347388255, 103.7437047)"
OH BENG GUAN,651395,1.363938215,103.751896,395A BUKIT BATOK WEST AVENUE 5 PCF SPARKLETOTS PRESCHOOL @ BUKIT GOMBAK 395A (CC) SINGAPORE 651395,"(1.363938215, 103.751896)"
COLD STORAGE SINGAPORE (1983) PTE LTD,658713,1.349921529,103.749172,1 BUKIT BATOK CENTRAL LINK BUKIT BATOK CENTRAL POST OFFICE SINGAPORE 658713,"(1.349921529, 103.749172)"
NTUC Fairprice Co-operative Ltd,659003,1.365773912,103.7485209,2 BUKIT BATOK WEST AVENUE 7 OCBC BUKIT BATOK WEST AVE 7 - FAIRPRICE SINGAPORE 659003,"(1.365773912, 103.7485209)"
NTUC Fairprice Co-operative Ltd,659958,1.349033312,103.7495665,10 BUKIT BATOK CENTRAL BUKIT BATOK MRT STATION SINGAPORE 659958,"(1.349033312, 103.7495665)"
COLD STORAGE SINGAPORE (1983) PTE LTD,667979,1.363550958,103.7642361,4 HILLVIEW RISE HILLV2 SINGAPORE 667979,"(1.363550958, 103.7642361)"
COLD STORAGE SINGAPORE (1983) PTE LTD,670256,1.379047757,103.7729375,256 BANGKIT ROAD HOLLAND-BUKIT PANJANG TOWN COUNCIL (BANGKIT OFFICE) SINGAPORE 670256,"(1.379047757, 103.7729375)"
COLD STORAGE SINGAPORE (1983) PTE LTD,670445,1.383399516,103.7710861,445 FAJAR ROAD CARPE DIEM YOUNG JOY PTE. LTD. SINGAPORE 670445,"(1.383399516, 103.7710861)"
SHENG SIONG SUPERMARKET PTE LTD,670547,1.388240217,103.7695754,547 SEGAR ROAD SEGAR VALE SINGAPORE 670547,"(1.388240217, 103.7695754)"
NTUC Fairprice Co-operative Ltd,670628,1.385096025,103.7602184,628 SENJA ROAD OCBC SENJA ROAD - FAIRPRICE SINGAPORE 670628,"(1.385096025, 103.7602184)"
COLD STORAGE SINGAPORE (1983) PTE LTD,671524,1.385295563,103.7661705,524A JELAPANG ROAD AMAZING STAR MONTESSORI HOUSE (GREENRIDGE) SINGAPORE 671524,"(1.385295563, 103.7661705)"
NTUC Fairprice Co-operative Ltd,677743,1.380517331,103.7639618,1 JELEBU ROAD UOB BUKIT PANJANG BRANCH SINGAPORE 677743,"(1.380517331, 103.7639618)"
COLD STORAGE SINGAPORE (1983) PTE LTD,677899,1.38055128,103.760107,1 WOODLANDS ROAD MINDCHAMPS PRESCHOOL @JUNCTION 10 PTE LIMITED SINGAPORE 677899,"(1.38055128, 103.760107)"
COLD STORAGE SINGAPORE (1983) PTE LTD,678077,1.360121549,103.767558,464 UPPER BUKIT TIMAH ROAD THE RAIL MALL SINGAPORE 678077,"(1.360121549, 103.767558)"
NTUC Fairprice Co-operative Ltd,679947,1.377600591,103.7724897,2 BUKIT PANJANG RING ROAD DBS NTUC BUKIT PANJANG RING ROAD SINGAPORE 679947,"(1.377600591, 103.7724897)"
SHENG SIONG SUPERMARKET PTE LTD,680018,1.378297688,103.7540714,18 TECK WHYE LANE TECK WHYE HEIGHTS III SINGAPORE 680018,"(1.378297688, 103.7540714)"
NTUC Fairprice Co-operative Ltd,680140,1.380030583,103.7531184,140 TECK WHYE LANE OCBC TECK WHYE LANE - FAIRPRICE SINGAPORE 680140,"(1.380030583, 103.7531184)"
PRIME SUPERMARKET (1996) PTE LTD,680142,1.380790496,103.7519544,142 TECK WHYE LANE SINGAPORE 680142,"(1.380790496, 103.7519544)"
PRIME SUPERMARKET (1996) PTE LTD,680253,1.377439626,103.7443832,253 CHOA CHU KANG AVENUE 1 JUST KIDS @ CHOA CHU KANG PTE. LTD. SINGAPORE 680253,"(1.377439626, 103.7443832)"
ANG KEN CHUA,680410,1.380627988,103.7415201,410 CHOA CHU KANG AVENUE 3 SINGAPORE 680410,"(1.380627988, 103.7415201)"
COLD STORAGE SINGAPORE (1983) PTE LTD,680475,1.378056148,103.7389318,475 CHOA CHU KANG AVENUE 3 LEARNING VISION @ WORK PTE LTD SINGAPORE 680475,"(1.378056148, 103.7389318)"
NTUC Fairprice Co-operative Ltd,680533,1.392059532,103.7431549,533 CHOA CHU KANG STREET 51 OCBC LIMBANG SHOPPING CENTRE - FAIRPRICE SINGAPORE 680533,"(1.392059532, 103.7431549)"
NTUC Fairprice Co-operative Ltd,689578,1.397084324,103.746598,21 CHOA CHU KANG NORTH 6 DBS NTUC YEW TEE POINT SINGAPORE 689578,"(1.397084324, 103.746598)"
NTUC Fairprice Co-operative Ltd,689812,1.385068365,103.7449504,21 CHOA CHU KANG AVENUE 4 DBS NTUC LOT 1 SHOPPERS' MALL SINGAPORE 689812,"(1.385068365, 103.7449504)"
AJMAL TRADE MART PTE. LTD.,698918,1.37573219,103.722544,11 JALAN LEKAR SCAL DORMITORY (JALAN LEKAR) SINGAPORE 698918,"(1.37573219, 103.722544)"
PHAN NEE INVESTMENTS (S) PTE LTD,698928,1.371856914,103.7202119,501 OLD CHOA CHU KANG ROAD HOME TEAM ACADEMY (BLK 14) SINGAPORE 698928,"(1.371856914, 103.7202119)"
AJMAL TRADING GROUP PTE. LTD.,709154,1.383676743,103.6950781,1A MURAI FARMWAY MURAI LODGE II SINGAPORE 709154,"(1.383676743, 103.6950781)"
SHAFEN SUPERMARKET & TRADING (S) PTE. LTD.,709155,1.384592585,103.6947788,1B MURAI FARMWAY DBS MURAI LODGE I SINGAPORE 709155,"(1.384592585, 103.6947788)"
GINZA FARM SINGAPORE PTE. LTD.,718813,1.419693574,103.7185755,10 NEO TIEW LANE 2 GALLOP KRANJI FARM RESORT SINGAPORE 718813,"(1.419693574, 103.7185755)"
SADIA SUPERMARKET & TRADING (S) PTE. LTD.,729045,1.417572426,103.744217,17 SUNGEI KADUT STREET 4 SUNGEI KADUT INDUSTRIAL ESTATE SINGAPORE 729045,"(1.417572426, 103.744217)"
AMS SUPER MART PTE LTD,729759,1.411244581,103.7763184,390 MANDAI ROAD SINGAPORE 729759,"(1.411244581, 103.7763184)"
GOWRI'S GLOBAL MARKETING PTE. LTD.,729760,1.410534843,103.7684467,460 MANDAI ROAD MANDAI LODGE 1 SINGAPORE 729760,"(1.410534843, 103.7684467)"
SADIA MINIMART PTE LTD,729908,1.408529972,103.7594062,11 MANDAI ESTATE ELDIX SINGAPORE 729908,"(1.408529972, 103.7594062)"
HH SUNDRY SHOP PTE. LTD.,729937,1.40630278,103.7606146,23 MANDAI ESTATE WESTLITE JUNIPER SINGAPORE 729937,"(1.40630278, 103.7606146)"
BISMILLAH MINIMART PTE. LTD.,729939,1.407543245,103.758095,32 MANDAI ESTATE WESTLITE MANDAI DORMITORY SINGAPORE 729939,"(1.407543245, 103.758095)"
SHENG SIONG SUPERMARKET PTE LTD,730301,1.43150527,103.7735157,301 WOODLANDS STREET 31 SINGAPORE 730301,"(1.43150527, 103.7735157)"
COLD STORAGE SINGAPORE (1983) PTE LTD,730548,1.430801139,103.7941048,548 WOODLANDS DRIVE 44 OCBC VISTA POINT - CHEERS SINGAPORE 730548,"(1.430801139, 103.7941048)"
PRIME SUPERMARKET LIMITED?,730678,1.439983664,103.8012931,678 WOODLANDS AVENUE 6 MY FIRST SKOOL SINGAPORE 730678,"(1.439983664, 103.8012931)"
COLD STORAGE SINGAPORE (1983) PTE LTD,730768,1.445812977,103.7982191,768 WOODLANDS AVENUE 6 SINGAPORE VETERINARY ANIMAL CLINIC SINGAPORE 730768,"(1.445812977, 103.7982191)"
FORTUNE SUPERMARKET PTE. LTD.,730780,1.44834155,103.8010571,780 WOODLANDS CRESCENT WOODLANDS DEW SINGAPORE 730780,"(1.44834155, 103.8010571)"
COLD STORAGE SINGAPORE (1983) PTE LTD,730883,1.442852222,103.7909133,883 WOODLANDS STREET 82 UOB WOODLANDS NORTH PLAZA SINGAPORE 730883,"(1.442852222, 103.7909133)"
NTUC Fairprice Co-operative Ltd,730888,1.437118561,103.7953161,888 WOODLANDS DRIVE 50 OCBC WOODLANDS DRIVE 50 - FAIRPRICE SINGAPORE 730888,"(1.437118561, 103.7953161)"
NTUC Fairprice Co-operative Ltd,730900,1.434949802,103.786675,900 SOUTH WOODLANDS DRIVE SATA COMMHEALTH WOODLANDS MEDICAL CENTRE SINGAPORE 730900,"(1.434949802, 103.786675)"
NTUC Fairprice Co-operative Ltd,732570,1.431063955,103.7904541,570B WOODLANDS AVENUE 1 OCBC WOODLANDS AVE 1 - FAIRPRICE SINGAPORE 732570,"(1.431063955, 103.7904541)"
VENKATESH DEEPA ( VIDEKS GROCERS ),733686,1.442144832,103.80687,686C WOODLANDS DRIVE 73 SINGAPORE 733686,"(1.442144832, 103.80687)"
PHAN NEE TRADING LLP,737723,1.461464553,103.8095631,2 WOODLANDS SECTOR 2 DBS WESTLITE DORMITORY (WOODLANDS) SINGAPORE 737723,"(1.461464553, 103.8095631)"
MM SUNDRY SHOP PTE.LTD.,738252,1.454646556,103.8044767,27 WOODLANDS SECTOR 1 WOODLANDS DORMITORY SINGAPORE 738252,"(1.454646556, 103.8044767)"
COLD STORAGE SINGAPORE (1983) PTE LTD,738344,1.440588562,103.8009905,70 WOODLANDS AVENUE 7 ADMIRALTY MRT STATION SINGAPORE 738344,"(1.440588562, 103.8009905)"
NTUC Fairprice Co-operative Ltd,739044,1.432521149,103.7740746,71 WOODLANDS AVENUE 3 MARSILING MRT STATION SINGAPORE 739044,"(1.432521149, 103.7740746)"
NTUC Fairprice Co-operative Ltd,739065,1.429336335,103.7813373,30 WOODLANDS AVENUE 1 OCBC WOODLANDS AVENUE 1 - FAIRPRICE SINGAPORE 739065,"(1.429336335, 103.7813373)"
MUMTAJ BEGAM D/O MOHAMED YUSOOF,739065,1.429336335,103.7813373,30 WOODLANDS AVENUE 1 OCBC WOODLANDS AVENUE 1 - FAIRPRICE SINGAPORE 739065,"(1.429336335, 103.7813373)"
BALASUBRAMANIYAN KANNADASAN,739503,1.43594536,103.7540084,257 KRANJI ROAD KRANJI INDUSTRIAL ESTATE SINGAPORE 739503,"(1.43594536, 103.7540084)"
AJMAL TRADE MART PTE. LTD.,739522,1.431898765,103.759838,12 KRANJI ROAD KRANJI LODGE ONE SINGAPORE 739522,"(1.431898765, 103.759838)"
NTUC Fairprice Co-operative Ltd,750355,1.449543108,103.8187263,355 SEMBAWANG WAY HDB SEMBAWANG BRANCH SINGAPORE 750355,"(1.449543108, 103.8187263)"
FORTUNE SUPERMARKET PTE. LTD.,750463,1.455553884,103.8146493,463 SEMBAWANG DRIVE DBS SEMBAWANG DRIVE 463 SINGAPORE 750463,"(1.455553884, 103.8146493)"
NTUC Fairprice Co-operative Ltd,750511,1.453845188,103.8195433,511 CANBERRA ROAD ZULFA KINDERGARTEN @ SEMBAWANG MART PTE LTD SINGAPORE 750511,"(1.453845188, 103.8195433)"
COLD STORAGE SINGAPORE (1983) PTE LTD,751406,1.452387573,103.8174401,406A SEMBAWANG DRIVE MULTI STOREY CAR PARK SINGAPORE 751406,"(1.452387573, 103.8174401)"
COLD STORAGE SINGAPORE (1983) PTE LTD,752468,1.450008617,103.8141109,468B ADMIRALTY DRIVE BLUE RIVERVIEW SINGAPORE 752468,"(1.450008617, 103.8141109)"
SHENG SIONG SUPERMARKET PTE LTD,757177,1.450895656,103.7970504,200 WOODLANDS INDUSTRIAL PARK E7 WOODLANDS RECREATION CENTRE SINGAPORE 757177,"(1.450895656, 103.7970504)"
DE ESPERTO MINIMART PTE. LTD.,757178,1.451220638,103.7978534,190 WOODLANDS INDUSTRIAL PARK E7 WOODLANDS LODGE TWO SINGAPORE 757178,"(1.451220638, 103.7978534)"
GAVARASANA SURESH KUMAR,757388,1.450108248,103.7945553,50 WOODLANDS INDUSTRIAL PARK E4 WOODLANDS LODGE ONE SINGAPORE 757388,"(1.450108248, 103.7945553)"
V SURESH KUMAR,757443,1.459828178,103.8200734,51 ADMIRALTY ROAD WEST COCHRANE LODGE I SINGAPORE 757443,"(1.459828178, 103.8200734)"
PHAN NEE TRADING LLP,757444,1.460658672,103.8191747,49 ADMIRALTY ROAD WEST DBS COCHRANE LODGE II SINGAPORE 757444,"(1.460658672, 103.8191747)"
NTUC Fairprice Co-operative Ltd,757713,1.448194368,103.8194644,30 SEMBAWANG DRIVE OCBC SUN PLAZA BRANCH SINGAPORE 757713,"(1.448194368, 103.8194644)"
COLD STORAGE SINGAPORE (1983) PTE LTD,758459,1.441767152,103.8244951,604 SEMBAWANG ROAD UOB SEMBAWANG SHOPPING CENTRE SINGAPORE 758459,"(1.441767152, 103.8244951)"
SONG FISH DEALER PTE LTD,758459,1.441767152,103.8244951,604 SEMBAWANG ROAD UOB SEMBAWANG SHOPPING CENTRE SINGAPORE 758459,"(1.441767152, 103.8244951)"
COLD STORAGE SINGAPORE (1983) PTE LTD,760102,1.430618304,103.828763,102 YISHUN AVENUE 5 OCBC YISHUN AVE 5 - 7 ELEVEN SINGAPORE 760102,"(1.430618304, 103.828763)"
NTUC Fairprice Co-operative Ltd,760239,1.433594531,103.8396867,239 YISHUN RING ROAD DBS NTUC YISHUN RING ROAD SINGAPORE 760239,"(1.433594531, 103.8396867)"
COLD STORAGE SINGAPORE (1983) PTE LTD,760291,1.435762303,103.8367289,291 YISHUN STREET 22 OCBC YISHUN ST 22 - 7 ELEVEN SINGAPORE 760291,"(1.435762303, 103.8367289)"
COLD STORAGE SINGAPORE (1983) PTE LTD,760293,1.435915985,103.8378584,293 YISHUN STREET 22 UOB YISHUN STREET 22 SINGAPORE 760293,"(1.435915985, 103.8378584)"
TAN KWEE ENG,760327,1.430071099,103.8423964,327 YISHUN RING ROAD YISHUN RIVERGREEN SINGAPORE 760327,"(1.430071099, 103.8423964)"
NTUC Fairprice Co-operative Ltd,760414,1.424528491,103.8465955,414 YISHUN RING ROAD OCBC YISHUN RING ROAD - FAIRPRICE SINGAPORE 760414,"(1.424528491, 103.8465955)"
COLD STORAGE SINGAPORE (1983) PTE LTD,760418,1.424899319,103.8472498,418 YISHUN AVENUE 11 SINGAPORE 760418,"(1.424899319, 103.8472498)"
PRIME SUPERMARKET (1996) PTE LTD,760761,1.425398424,103.833259,761 YISHUN STREET 72 UOB YISHUN STREET 72 SINGAPORE 760761,"(1.425398424, 103.833259)"
KAI SOON SUPERMARKET PTE. LTD.,760780,1.422138653,103.8328827,780 YISHUN RING ROAD KHATIB VALE SINGAPORE 760780,"(1.422138653, 103.8328827)"
SHENG SIONG SUPERMARKET PTE LTD,760845,1.415998147,103.8350536,845 YISHUN STREET 81 NEE SOON TOWN COUNCIL (NEE SOON SOUTH BRANCH) SINGAPORE 760845,"(1.415998147, 103.8350536)"
NTUC Fairprice Co-operative Ltd,760849,1.416943528,103.8352843,849 YISHUN RING ROAD OCBC YISHUN RING ROAD - FAIRPRICE SINGAPORE 760849,"(1.416943528, 103.8352843)"
SHENG SIONG SUPERMARKET PTE LTD,760925,1.427505489,103.8371253,925 YISHUN CENTRAL 1 EAGER BEAVER SCHOOLHOUSE 1 PTE. LTD. SINGAPORE 760925,"(1.427505489, 103.8371253)"
PHAN NEE TRADING LLP,768929,1.444341301,103.8390302,2B YISHUN AVENUE 7 SIMPANG LODGE I SINGAPORE 768929,"(1.444341301, 103.8390302)"
PHAN NEE INVESTMENTS (S) PTE LTD,768930,1.445276507,103.8380609,2C YISHUN AVENUE 7 SIMPANG LODGE 2 SINGAPORE 768930,"(1.445276507, 103.8380609)"
COLD STORAGE SINGAPORE (1983) PTE LTD,769092,1.41738337,103.8329799,201 YISHUN AVENUE 2 KHATIB MRT STATION SINGAPORE 769092,"(1.41738337, 103.8329799)"
NTUC Fairprice Co-operative Ltd,769093,1.429443085,103.835005,301 YISHUN AVENUE 2 YISHUN MRT STATION SINGAPORE 769093,"(1.429443085, 103.835005)"
COLD STORAGE SINGAPORE (1983) PTE LTD,769098,1.429733874,103.8358549,930 YISHUN AVENUE 2 YISHUN CENTRAL POST OFFICE SINGAPORE 769098,"(1.429733874, 103.8358549)"
NTUC Fairprice Co-operative Ltd,769162,1.411035991,103.8440399,1 ORCHID CLUB ROAD THE LITTLE SKOOL-HOUSE INTERNATIONAL PTE LTD SINGAPORE 769162,"(1.411035991, 103.8440399)"
SHENG SIONG SUPERMARKET PTE LTD,790473,1.397798747,103.8816988,473 FERNVALE STREET FERNVALE RIVERGROVE SINGAPORE 790473,"(1.397798747, 103.8816988)"
NTUC Fairprice Co-operative Ltd,791447,1.392138285,103.8724906,447A JALAN KAYU OCBC JALAN KAYU - FAIRPRICE SINGAPORE 791447,"(1.392138285, 103.8724906)"
GW TRADER PTE. LTD.,797455,1.418331386,103.8964479,8 SELETAR NORTH LINK DBS PPT LODGE 1A SINGAPORE 797455,"(1.418331386, 103.8964479)"
D-RON INVESTMENTS PTE. LTD.,797601,1.417641025,103.8963481,2 SELETAR NORTH LINK CARNIVAL CINEMAS S11 PUNGGOL SINGAPORE 797601,"(1.417641025, 103.8963481)"
NTUC Fairprice Co-operative Ltd,797653,1.391406419,103.8761657,33 SENGKANG WEST AVENUE OCBC SELETAR MALL - FAIRPRICE SINGAPORE 797653,"(1.391406419, 103.8761657)"
HONG AIK PTE LTD,798049,1.396950927,103.866644,19 SELETAR WEST FARMWAY 6 SELETAR LODGE ONE SINGAPORE 798049,"(1.396950927, 103.866644)"
LABIBA ENTERPRISE PTE. LTD.,799473,1.39657691,103.8728604,249A JALAN KAYU JALAN KAYU ESTATE SINGAPORE 799473,"(1.39657691, 103.8728604)"
COLD STORAGE SINGAPORE (1983) PTE LTD,807011,1.387367695,103.869348,1 SELETAR ROAD OCBC GREENWICH V SINGAPORE 807011,"(1.387367695, 103.869348)"
NTUC Fairprice Co-operative Ltd,819643,1.356239754,103.989365,60 AIRPORT BOULEVARD DBS CHANGI AIRPORT TERMINAL 2 ARRIVAL MEETING HALL SINGAPORE 819643,"(1.356239754, 103.989365)"
NTUC Fairprice Co-operative Ltd,819663,1.355568558,103.9858521,65 AIRPORT BOULEVARD OCBC CHANGI AIRPORT TERMINAL 3 - ARRIVAL HALL NORTH SINGAPORE 819663,"(1.355568558, 103.9858521)"
PRIME SUPERMARKET LIMITED?,820108,1.396498616,103.9088663,108 PUNGGOL FIELD UOB PUNGGOL FIELD SINGAPORE 820108,"(1.396498616, 103.9088663)"
NTUC Fairprice Co-operative Ltd,820168,1.394256298,103.9130435,168 PUNGGOL FIELD OCBC PUNGGOL PLAZA - FAIRPRICE SINGAPORE 820168,"(1.394256298, 103.9130435)"
U STARS SUPERMARKET PTE. LTD.,820261,1.405413536,103.8968239,261 PUNGGOL WAY NOBLELAND ARTS N LEARNING PLACE @PUNGGOL PTE. LTD. SINGAPORE 820261,"(1.405413536, 103.8968239)"
SHENG SIONG SUPERMARKET PTE LTD,820301,1.403580476,103.906279,301 PUNGGOL CENTRAL UOB PUNGGOL CENTRAL SINGAPORE 820301,"(1.403580476, 103.906279)"
NTUC Fairprice Co-operative Ltd,820612,1.404610028,103.9086656,612 PUNGGOL DRIVE SWEETLANDS CHILDCARE PUNGGOL 612 PTE. LTD. SINGAPORE 820612,"(1.404610028, 103.9086656)"
ANG MO SUPERMARKET PTE LTD,820639,1.399461178,103.9160545,639 PUNGGOL DRIVE DBS PUNGGOL DRIVE SINGAPORE 820639,"(1.399461178, 103.9160545)"
COLD STORAGE SINGAPORE (1983) PTE LTD,820671,1.40566048,103.9119913,671 EDGEFIELD PLAINS WATERWAY BANKS SINGAPORE 820671,"(1.40566048, 103.9119913)"
SHENG SIONG SUPERMARKET PTE LTD,821312,1.410819269,103.9003717,312A SUMANG LINK PUNGGOL PARCVISTA SINGAPORE 821312,"(1.410819269, 103.9003717)"
LI LI CHENG SUPERMARKET (PUNGGOL) PTE. LTD.,823273,1.402303014,103.9012624,273C PUNGGOL PLACE PUNGGOL REGALIA SINGAPORE 823273,"(1.402303014, 103.9012624)"
NTUC Fairprice Co-operative Ltd,823308,1.408006949,103.8990744,308C PUNGGOL WALK WATERWAY TERRACES I SINGAPORE 823308,"(1.408006949, 103.8990744)"
COLD STORAGE SINGAPORE (1983) PTE LTD,824622,1.40053115,103.9105369,622D PUNGGOL CENTRAL PUNGGOL SPECTRA SINGAPORE 824622,"(1.40053115, 103.9105369)"
NTUC Fairprice Co-operative Ltd,828761,1.4064583,103.9021295,83 PUNGGOL CENTRAL OCBC WATERWAY POINT BRANCH SINGAPORE 828761,"(1.4064583, 103.9021295)"
